{"type": "FeatureCollection", "features": [{"type": "Feature", "properties": {"name": null, "kind": "Location vulnerable to flooding", "source_layer": "Map_of_Locations_Vulnerable_to_Flooding_in_Bengaluru_Urban"}, "geometry": {"type": "Point", "coordinates": [77.532435, 12.867499]}}, {"type": "Feature", "properties": {"name": null, "kind": "Location vulnerable to flooding", "source_layer": "Map_of_Locations_Vulnerable_to_Flooding_in_Bengaluru_Urban"}, "geometry": {"type": "Point", "coordinates": [77.528083, 12.871775]}}, {"type": "Feature", "properties": {"name": null, "kind": "Location vulnerable to flooding", "source_layer": "Map_of_Locations_Vulnerable_to_Flooding_in_Bengaluru_Urban"}, "geometry": {"type": "Point", "coordinates": [77.542694, 12.877711]}}, {"type": "Feature", "properties": {"name": null, "kind": "Location vulnerable to flooding", "source_layer": "Map_of_Locations_Vulnerable_to_Flooding_in_Bengaluru_Urban"}, "geometry": {"type": "Point", "coordinates": [77.541273, 12.877865]}}, {"type": "Feature", "properties": {"name": null, "kind": "Location vulnerable to flooding", "source_layer": "Map_of_Locations_Vulnerable_to_Flooding_in_Bengaluru_Urban"}, "geometry": {"type": "Point", "coordinates": [77.637418, 12.878907]}}, {"type": "Feature", "properties": {"name": null, "kind": "Location vulnerable to flooding", "source_layer": "Map_of_Locations_Vulnerable_to_Flooding_in_Bengaluru_Urban"}, "geometry": {"type": "Point", "coordinates": [77.604051, 12.879969]}}, {"type": "Feature", "properties": {"name": null, "kind": "Location vulnerable to flooding", "source_layer": "Map_of_Locations_Vulnerable_to_Flooding_in_Bengaluru_Urban"}, "geometry": {"type": "Point", "coordinates": [77.603987, 12.880518]}}, {"type": "Feature", "properties": {"name": null, "kind": "Location vulnerable to flooding", "source_layer": "Map_of_Locations_Vulnerable_to_Flooding_in_Bengaluru_Urban"}, "geometry": {"type": "Point", "coordinates": [77.604415, 12.880586]}}, {"type": "Feature", "properties": {"name": null, "kind": "Location vulnerable to flooding", "source_layer": "Map_of_Locations_Vulnerable_to_Flooding_in_Bengaluru_Urban"}, "geometry": {"type": "Point", "coordinates": [77.608253, 12.881756]}}, {"type": "Feature", "properties": {"name": null, "kind": "Location vulnerable to flooding", "source_layer": "Map_of_Locations_Vulnerable_to_Flooding_in_Bengaluru_Urban"}, "geometry": {"type": "Point", "coordinates": [77.642075, 12.885937]}}, {"type": "Feature", "properties": {"name": null, "kind": "Location vulnerable to flooding", "source_layer": "Map_of_Locations_Vulnerable_to_Flooding_in_Bengaluru_Urban"}, "geometry": {"type": "Point", "coordinates": [77.611508, 12.89657]}}, {"type": "Feature", "properties": {"name": null, "kind": "Location vulnerable to flooding", "source_layer": "Map_of_Locations_Vulnerable_to_Flooding_in_Bengaluru_Urban"}, "geometry": {"type": "Point", "coordinates": [77.692907, 12.897817]}}, {"type": "Feature", "properties": {"name": null, "kind": "Location vulnerable to flooding", "source_layer": "Map_of_Locations_Vulnerable_to_Flooding_in_Bengaluru_Urban"}, "geometry": {"type": "Point", "coordinates": [77.633121, 12.900922]}}, {"type": "Feature", "properties": {"name": null, "kind": "Location vulnerable to flooding", "source_layer": "Map_of_Locations_Vulnerable_to_Flooding_in_Bengaluru_Urban"}, "geometry": {"type": "Point", "coordinates": [77.631443, 12.90136]}}, {"type": "Feature", "properties": {"name": null, "kind": "Location vulnerable to flooding", "source_layer": "Map_of_Locations_Vulnerable_to_Flooding_in_Bengaluru_Urban"}, "geometry": {"type": "Point", "coordinates": [77.611262, 12.901886]}}, {"type": "Feature", "properties": {"name": null, "kind": "Location vulnerable to flooding", "source_layer": "Map_of_Locations_Vulnerable_to_Flooding_in_Bengaluru_Urban"}, "geometry": {"type": "Point", "coordinates": [77.598853, 12.903331]}}, {"type": "Feature", "properties": {"name": null, "kind": "Location vulnerable to flooding", "source_layer": "Map_of_Locations_Vulnerable_to_Flooding_in_Bengaluru_Urban"}, "geometry": {"type": "Point", "coordinates": [77.602807, 12.904455]}}, {"type": "Feature", "properties": {"name": null, "kind": "Location vulnerable to flooding", "source_layer": "Map_of_Locations_Vulnerable_to_Flooding_in_Bengaluru_Urban"}, "geometry": {"type": "Point", "coordinates": [77.626758, 12.904782]}}, {"type": "Feature", "properties": {"name": null, "kind": "Location vulnerable to flooding", "source_layer": "Map_of_Locations_Vulnerable_to_Flooding_in_Bengaluru_Urban"}, "geometry": {"type": "Point", "coordinates": [77.603036, 12.904903]}}, {"type": "Feature", "properties": {"name": null, "kind": "Location vulnerable to flooding", "source_layer": "Map_of_Locations_Vulnerable_to_Flooding_in_Bengaluru_Urban"}, "geometry": {"type": "Point", "coordinates": [77.644933, 12.909073]}}, {"type": "Feature", "properties": {"name": null, "kind": "Location vulnerable to flooding", "source_layer": "Map_of_Locations_Vulnerable_to_Flooding_in_Bengaluru_Urban"}, "geometry": {"type": "Point", "coordinates": [77.641585, 12.909359]}}, {"type": "Feature", "properties": {"name": null, "kind": "Location vulnerable to flooding", "source_layer": "Map_of_Locations_Vulnerable_to_Flooding_in_Bengaluru_Urban"}, "geometry": {"type": "Point", "coordinates": [77.512709, 12.911066]}}, {"type": "Feature", "properties": {"name": null, "kind": "Location vulnerable to flooding", "source_layer": "Map_of_Locations_Vulnerable_to_Flooding_in_Bengaluru_Urban"}, "geometry": {"type": "Point", "coordinates": [77.632402, 12.911655]}}, {"type": "Feature", "properties": {"name": null, "kind": "Location vulnerable to flooding", "source_layer": "Map_of_Locations_Vulnerable_to_Flooding_in_Bengaluru_Urban"}, "geometry": {"type": "Point", "coordinates": [77.574917, 12.914056]}}, {"type": "Feature", "properties": {"name": null, "kind": "Location vulnerable to flooding", "source_layer": "Map_of_Locations_Vulnerable_to_Flooding_in_Bengaluru_Urban"}, "geometry": {"type": "Point", "coordinates": [77.61675, 12.91575]}}, {"type": "Feature", "properties": {"name": null, "kind": "Location vulnerable to flooding", "source_layer": "Map_of_Locations_Vulnerable_to_Flooding_in_Bengaluru_Urban"}, "geometry": {"type": "Point", "coordinates": [77.520507, 12.915793]}}, {"type": "Feature", "properties": {"name": null, "kind": "Location vulnerable to flooding", "source_layer": "Map_of_Locations_Vulnerable_to_Flooding_in_Bengaluru_Urban"}, "geometry": {"type": "Point", "coordinates": [77.522556, 12.916406]}}, {"type": "Feature", "properties": {"name": null, "kind": "Location vulnerable to flooding", "source_layer": "Map_of_Locations_Vulnerable_to_Flooding_in_Bengaluru_Urban"}, "geometry": {"type": "Point", "coordinates": [77.520883, 12.916433]}}, {"type": "Feature", "properties": {"name": null, "kind": "Location vulnerable to flooding", "source_layer": "Map_of_Locations_Vulnerable_to_Flooding_in_Bengaluru_Urban"}, "geometry": {"type": "Point", "coordinates": [77.599889, 12.916472]}}, {"type": "Feature", "properties": {"name": null, "kind": "Location vulnerable to flooding", "source_layer": "Map_of_Locations_Vulnerable_to_Flooding_in_Bengaluru_Urban"}, "geometry": {"type": "Point", "coordinates": [77.622722, 12.917194]}}, {"type": "Feature", "properties": {"name": null, "kind": "Location vulnerable to flooding", "source_layer": "Map_of_Locations_Vulnerable_to_Flooding_in_Bengaluru_Urban"}, "geometry": {"type": "Point", "coordinates": [77.501991, 12.918067]}}, {"type": "Feature", "properties": {"name": null, "kind": "Location vulnerable to flooding", "source_layer": "Map_of_Locations_Vulnerable_to_Flooding_in_Bengaluru_Urban"}, "geometry": {"type": "Point", "coordinates": [77.621889, 12.918639]}}, {"type": "Feature", "properties": {"name": null, "kind": "Location vulnerable to flooding", "source_layer": "Map_of_Locations_Vulnerable_to_Flooding_in_Bengaluru_Urban"}, "geometry": {"type": "Point", "coordinates": [77.732498, 12.92109]}}, {"type": "Feature", "properties": {"name": null, "kind": "Location vulnerable to flooding", "source_layer": "Map_of_Locations_Vulnerable_to_Flooding_in_Bengaluru_Urban"}, "geometry": {"type": "Point", "coordinates": [77.599944, 12.921694]}}, {"type": "Feature", "properties": {"name": null, "kind": "Location vulnerable to flooding", "source_layer": "Map_of_Locations_Vulnerable_to_Flooding_in_Bengaluru_Urban"}, "geometry": {"type": "Point", "coordinates": [77.51148, 12.922204]}}, {"type": "Feature", "properties": {"name": null, "kind": "Location vulnerable to flooding", "source_layer": "Map_of_Locations_Vulnerable_to_Flooding_in_Bengaluru_Urban"}, "geometry": {"type": "Point", "coordinates": [77.518522, 12.922817]}}, {"type": "Feature", "properties": {"name": null, "kind": "Location vulnerable to flooding", "source_layer": "Map_of_Locations_Vulnerable_to_Flooding_in_Bengaluru_Urban"}, "geometry": {"type": "Point", "coordinates": [77.600444, 12.923]}}, {"type": "Feature", "properties": {"name": null, "kind": "Location vulnerable to flooding", "source_layer": "Map_of_Locations_Vulnerable_to_Flooding_in_Bengaluru_Urban"}, "geometry": {"type": "Point", "coordinates": [77.538937, 12.923239]}}, {"type": "Feature", "properties": {"name": null, "kind": "Location vulnerable to flooding", "source_layer": "Map_of_Locations_Vulnerable_to_Flooding_in_Bengaluru_Urban"}, "geometry": {"type": "Point", "coordinates": [77.505003, 12.923415]}}, {"type": "Feature", "properties": {"name": null, "kind": "Location vulnerable to flooding", "source_layer": "Map_of_Locations_Vulnerable_to_Flooding_in_Bengaluru_Urban"}, "geometry": {"type": "Point", "coordinates": [77.539133, 12.924696]}}, {"type": "Feature", "properties": {"name": null, "kind": "Location vulnerable to flooding", "source_layer": "Map_of_Locations_Vulnerable_to_Flooding_in_Bengaluru_Urban"}, "geometry": {"type": "Point", "coordinates": [77.521556, 12.924817]}}, {"type": "Feature", "properties": {"name": null, "kind": "Location vulnerable to flooding", "source_layer": "Map_of_Locations_Vulnerable_to_Flooding_in_Bengaluru_Urban"}, "geometry": {"type": "Point", "coordinates": [77.609028, 12.924944]}}, {"type": "Feature", "properties": {"name": null, "kind": "Location vulnerable to flooding", "source_layer": "Map_of_Locations_Vulnerable_to_Flooding_in_Bengaluru_Urban"}, "geometry": {"type": "Point", "coordinates": [77.678116, 12.926464]}}, {"type": "Feature", "properties": {"name": null, "kind": "Location vulnerable to flooding", "source_layer": "Map_of_Locations_Vulnerable_to_Flooding_in_Bengaluru_Urban"}, "geometry": {"type": "Point", "coordinates": [77.520331, 12.928569]}}, {"type": "Feature", "properties": {"name": null, "kind": "Location vulnerable to flooding", "source_layer": "Map_of_Locations_Vulnerable_to_Flooding_in_Bengaluru_Urban"}, "geometry": {"type": "Point", "coordinates": [77.717908, 12.928796]}}, {"type": "Feature", "properties": {"name": null, "kind": "Location vulnerable to flooding", "source_layer": "Map_of_Locations_Vulnerable_to_Flooding_in_Bengaluru_Urban"}, "geometry": {"type": "Point", "coordinates": [77.601028, 12.93025]}}, {"type": "Feature", "properties": {"name": null, "kind": "Location vulnerable to flooding", "source_layer": "Map_of_Locations_Vulnerable_to_Flooding_in_Bengaluru_Urban"}, "geometry": {"type": "Point", "coordinates": [77.512992, 12.931592]}}, {"type": "Feature", "properties": {"name": null, "kind": "Location vulnerable to flooding", "source_layer": "Map_of_Locations_Vulnerable_to_Flooding_in_Bengaluru_Urban"}, "geometry": {"type": "Point", "coordinates": [77.593917, 12.931917]}}, {"type": "Feature", "properties": {"name": null, "kind": "Location vulnerable to flooding", "source_layer": "Map_of_Locations_Vulnerable_to_Flooding_in_Bengaluru_Urban"}, "geometry": {"type": "Point", "coordinates": [77.535323, 12.932023]}}, {"type": "Feature", "properties": {"name": null, "kind": "Location vulnerable to flooding", "source_layer": "Map_of_Locations_Vulnerable_to_Flooding_in_Bengaluru_Urban"}, "geometry": {"type": "Point", "coordinates": [77.516858, 12.932791]}}, {"type": "Feature", "properties": {"name": null, "kind": "Location vulnerable to flooding", "source_layer": "Map_of_Locations_Vulnerable_to_Flooding_in_Bengaluru_Urban"}, "geometry": {"type": "Point", "coordinates": [77.588972, 12.932944]}}, {"type": "Feature", "properties": {"name": null, "kind": "Location vulnerable to flooding", "source_layer": "Map_of_Locations_Vulnerable_to_Flooding_in_Bengaluru_Urban"}, "geometry": {"type": "Point", "coordinates": [77.630389, 12.933806]}}, {"type": "Feature", "properties": {"name": null, "kind": "Location vulnerable to flooding", "source_layer": "Map_of_Locations_Vulnerable_to_Flooding_in_Bengaluru_Urban"}, "geometry": {"type": "Point", "coordinates": [77.630139, 12.934722]}}, {"type": "Feature", "properties": {"name": null, "kind": "Location vulnerable to flooding", "source_layer": "Map_of_Locations_Vulnerable_to_Flooding_in_Bengaluru_Urban"}, "geometry": {"type": "Point", "coordinates": [77.705013, 12.936355]}}, {"type": "Feature", "properties": {"name": null, "kind": "Location vulnerable to flooding", "source_layer": "Map_of_Locations_Vulnerable_to_Flooding_in_Bengaluru_Urban"}, "geometry": {"type": "Point", "coordinates": [77.626417, 12.936889]}}, {"type": "Feature", "properties": {"name": null, "kind": "Location vulnerable to flooding", "source_layer": "Map_of_Locations_Vulnerable_to_Flooding_in_Bengaluru_Urban"}, "geometry": {"type": "Point", "coordinates": [77.746844, 12.938078]}}, {"type": "Feature", "properties": {"name": null, "kind": "Location vulnerable to flooding", "source_layer": "Map_of_Locations_Vulnerable_to_Flooding_in_Bengaluru_Urban"}, "geometry": {"type": "Point", "coordinates": [77.62875, 12.938639]}}, {"type": "Feature", "properties": {"name": null, "kind": "Location vulnerable to flooding", "source_layer": "Map_of_Locations_Vulnerable_to_Flooding_in_Bengaluru_Urban"}, "geometry": {"type": "Point", "coordinates": [77.723178, 12.938932]}}, {"type": "Feature", "properties": {"name": null, "kind": "Location vulnerable to flooding", "source_layer": "Map_of_Locations_Vulnerable_to_Flooding_in_Bengaluru_Urban"}, "geometry": {"type": "Point", "coordinates": [77.482942, 12.942045]}}, {"type": "Feature", "properties": {"name": null, "kind": "Location vulnerable to flooding", "source_layer": "Map_of_Locations_Vulnerable_to_Flooding_in_Bengaluru_Urban"}, "geometry": {"type": "Point", "coordinates": [77.581472, 12.943583]}}, {"type": "Feature", "properties": {"name": null, "kind": "Location vulnerable to flooding", "source_layer": "Map_of_Locations_Vulnerable_to_Flooding_in_Bengaluru_Urban"}, "geometry": {"type": "Point", "coordinates": [77.525586, 12.944653]}}, {"type": "Feature", "properties": {"name": null, "kind": "Location vulnerable to flooding", "source_layer": "Map_of_Locations_Vulnerable_to_Flooding_in_Bengaluru_Urban"}, "geometry": {"type": "Point", "coordinates": [77.53507, 12.945302]}}, {"type": "Feature", "properties": {"name": null, "kind": "Location vulnerable to flooding", "source_layer": "Map_of_Locations_Vulnerable_to_Flooding_in_Bengaluru_Urban"}, "geometry": {"type": "Point", "coordinates": [77.528937, 12.94548]}}, {"type": "Feature", "properties": {"name": null, "kind": "Location vulnerable to flooding", "source_layer": "Map_of_Locations_Vulnerable_to_Flooding_in_Bengaluru_Urban"}, "geometry": {"type": "Point", "coordinates": [77.589639, 12.946306]}}, {"type": "Feature", "properties": {"name": null, "kind": "Location vulnerable to flooding", "source_layer": "Map_of_Locations_Vulnerable_to_Flooding_in_Bengaluru_Urban"}, "geometry": {"type": "Point", "coordinates": [77.563378, 12.947235]}}, {"type": "Feature", "properties": {"name": null, "kind": "Location vulnerable to flooding", "source_layer": "Map_of_Locations_Vulnerable_to_Flooding_in_Bengaluru_Urban"}, "geometry": {"type": "Point", "coordinates": [77.563375, 12.947328]}}, {"type": "Feature", "properties": {"name": null, "kind": "Location vulnerable to flooding", "source_layer": "Map_of_Locations_Vulnerable_to_Flooding_in_Bengaluru_Urban"}, "geometry": {"type": "Point", "coordinates": [77.619194, 12.947861]}}, {"type": "Feature", "properties": {"name": null, "kind": "Location vulnerable to flooding", "source_layer": "Map_of_Locations_Vulnerable_to_Flooding_in_Bengaluru_Urban"}, "geometry": {"type": "Point", "coordinates": [77.487694, 12.949595]}}, {"type": "Feature", "properties": {"name": null, "kind": "Location vulnerable to flooding", "source_layer": "Map_of_Locations_Vulnerable_to_Flooding_in_Bengaluru_Urban"}, "geometry": {"type": "Point", "coordinates": [77.700679, 12.949943]}}, {"type": "Feature", "properties": {"name": null, "kind": "Location vulnerable to flooding", "source_layer": "Map_of_Locations_Vulnerable_to_Flooding_in_Bengaluru_Urban"}, "geometry": {"type": "Point", "coordinates": [77.625889, 12.950389]}}, {"type": "Feature", "properties": {"name": null, "kind": "Location vulnerable to flooding", "source_layer": "Map_of_Locations_Vulnerable_to_Flooding_in_Bengaluru_Urban"}, "geometry": {"type": "Point", "coordinates": [77.538597, 12.950568]}}, {"type": "Feature", "properties": {"name": null, "kind": "Location vulnerable to flooding", "source_layer": "Map_of_Locations_Vulnerable_to_Flooding_in_Bengaluru_Urban"}, "geometry": {"type": "Point", "coordinates": [77.605611, 12.951]}}, {"type": "Feature", "properties": {"name": null, "kind": "Location vulnerable to flooding", "source_layer": "Map_of_Locations_Vulnerable_to_Flooding_in_Bengaluru_Urban"}, "geometry": {"type": "Point", "coordinates": [77.599, 12.951167]}}, {"type": "Feature", "properties": {"name": null, "kind": "Location vulnerable to flooding", "source_layer": "Map_of_Locations_Vulnerable_to_Flooding_in_Bengaluru_Urban"}, "geometry": {"type": "Point", "coordinates": [77.605944, 12.951944]}}, {"type": "Feature", "properties": {"name": null, "kind": "Location vulnerable to flooding", "source_layer": "Map_of_Locations_Vulnerable_to_Flooding_in_Bengaluru_Urban"}, "geometry": {"type": "Point", "coordinates": [77.596833, 12.952972]}}, {"type": "Feature", "properties": {"name": null, "kind": "Location vulnerable to flooding", "source_layer": "Map_of_Locations_Vulnerable_to_Flooding_in_Bengaluru_Urban"}, "geometry": {"type": "Point", "coordinates": [77.541253, 12.953035]}}, {"type": "Feature", "properties": {"name": null, "kind": "Location vulnerable to flooding", "source_layer": "Map_of_Locations_Vulnerable_to_Flooding_in_Bengaluru_Urban"}, "geometry": {"type": "Point", "coordinates": [77.574283, 12.953748]}}, {"type": "Feature", "properties": {"name": null, "kind": "Location vulnerable to flooding", "source_layer": "Map_of_Locations_Vulnerable_to_Flooding_in_Bengaluru_Urban"}, "geometry": {"type": "Point", "coordinates": [77.690549, 12.955021]}}, {"type": "Feature", "properties": {"name": null, "kind": "Location vulnerable to flooding", "source_layer": "Map_of_Locations_Vulnerable_to_Flooding_in_Bengaluru_Urban"}, "geometry": {"type": "Point", "coordinates": [77.649048, 12.955624]}}, {"type": "Feature", "properties": {"name": null, "kind": "Location vulnerable to flooding", "source_layer": "Map_of_Locations_Vulnerable_to_Flooding_in_Bengaluru_Urban"}, "geometry": {"type": "Point", "coordinates": [77.720545, 12.955652]}}, {"type": "Feature", "properties": {"name": null, "kind": "Location vulnerable to flooding", "source_layer": "Map_of_Locations_Vulnerable_to_Flooding_in_Bengaluru_Urban"}, "geometry": {"type": "Point", "coordinates": [77.597028, 12.956139]}}, {"type": "Feature", "properties": {"name": null, "kind": "Location vulnerable to flooding", "source_layer": "Map_of_Locations_Vulnerable_to_Flooding_in_Bengaluru_Urban"}, "geometry": {"type": "Point", "coordinates": [77.741044, 12.956182]}}, {"type": "Feature", "properties": {"name": null, "kind": "Location vulnerable to flooding", "source_layer": "Map_of_Locations_Vulnerable_to_Flooding_in_Bengaluru_Urban"}, "geometry": {"type": "Point", "coordinates": [77.54258, 12.956317]}}, {"type": "Feature", "properties": {"name": null, "kind": "Location vulnerable to flooding", "source_layer": "Map_of_Locations_Vulnerable_to_Flooding_in_Bengaluru_Urban"}, "geometry": {"type": "Point", "coordinates": [77.735939, 12.95694]}}, {"type": "Feature", "properties": {"name": null, "kind": "Location vulnerable to flooding", "source_layer": "Map_of_Locations_Vulnerable_to_Flooding_in_Bengaluru_Urban"}, "geometry": {"type": "Point", "coordinates": [77.562083, 12.957039]}}, {"type": "Feature", "properties": {"name": null, "kind": "Location vulnerable to flooding", "source_layer": "Map_of_Locations_Vulnerable_to_Flooding_in_Bengaluru_Urban"}, "geometry": {"type": "Point", "coordinates": [77.568681, 12.957242]}}, {"type": "Feature", "properties": {"name": null, "kind": "Location vulnerable to flooding", "source_layer": "Map_of_Locations_Vulnerable_to_Flooding_in_Bengaluru_Urban"}, "geometry": {"type": "Point", "coordinates": [77.514429, 12.957687]}}, {"type": "Feature", "properties": {"name": null, "kind": "Location vulnerable to flooding", "source_layer": "Map_of_Locations_Vulnerable_to_Flooding_in_Bengaluru_Urban"}, "geometry": {"type": "Point", "coordinates": [77.744919, 12.958488]}}, {"type": "Feature", "properties": {"name": null, "kind": "Location vulnerable to flooding", "source_layer": "Map_of_Locations_Vulnerable_to_Flooding_in_Bengaluru_Urban"}, "geometry": {"type": "Point", "coordinates": [77.511303, 12.959262]}}, {"type": "Feature", "properties": {"name": null, "kind": "Location vulnerable to flooding", "source_layer": "Map_of_Locations_Vulnerable_to_Flooding_in_Bengaluru_Urban"}, "geometry": {"type": "Point", "coordinates": [77.708075, 12.959824]}}, {"type": "Feature", "properties": {"name": null, "kind": "Location vulnerable to flooding", "source_layer": "Map_of_Locations_Vulnerable_to_Flooding_in_Bengaluru_Urban"}, "geometry": {"type": "Point", "coordinates": [77.643056, 12.961111]}}, {"type": "Feature", "properties": {"name": null, "kind": "Location vulnerable to flooding", "source_layer": "Map_of_Locations_Vulnerable_to_Flooding_in_Bengaluru_Urban"}, "geometry": {"type": "Point", "coordinates": [77.582806, 12.962111]}}, {"type": "Feature", "properties": {"name": null, "kind": "Location vulnerable to flooding", "source_layer": "Map_of_Locations_Vulnerable_to_Flooding_in_Bengaluru_Urban"}, "geometry": {"type": "Point", "coordinates": [77.49191, 12.96241]}}, {"type": "Feature", "properties": {"name": null, "kind": "Location vulnerable to flooding", "source_layer": "Map_of_Locations_Vulnerable_to_Flooding_in_Bengaluru_Urban"}, "geometry": {"type": "Point", "coordinates": [77.583972, 12.962417]}}, {"type": "Feature", "properties": {"name": null, "kind": "Location vulnerable to flooding", "source_layer": "Map_of_Locations_Vulnerable_to_Flooding_in_Bengaluru_Urban"}, "geometry": {"type": "Point", "coordinates": [77.579806, 12.963]}}, {"type": "Feature", "properties": {"name": null, "kind": "Location vulnerable to flooding", "source_layer": "Map_of_Locations_Vulnerable_to_Flooding_in_Bengaluru_Urban"}, "geometry": {"type": "Point", "coordinates": [77.614639, 12.963722]}}, {"type": "Feature", "properties": {"name": null, "kind": "Location vulnerable to flooding", "source_layer": "Map_of_Locations_Vulnerable_to_Flooding_in_Bengaluru_Urban"}, "geometry": {"type": "Point", "coordinates": [77.566525, 12.965317]}}, {"type": "Feature", "properties": {"name": null, "kind": "Location vulnerable to flooding", "source_layer": "Map_of_Locations_Vulnerable_to_Flooding_in_Bengaluru_Urban"}, "geometry": {"type": "Point", "coordinates": [77.517394, 12.965703]}}, {"type": "Feature", "properties": {"name": null, "kind": "Location vulnerable to flooding", "source_layer": "Map_of_Locations_Vulnerable_to_Flooding_in_Bengaluru_Urban"}, "geometry": {"type": "Point", "coordinates": [77.552619, 12.965883]}}, {"type": "Feature", "properties": {"name": null, "kind": "Location vulnerable to flooding", "source_layer": "Map_of_Locations_Vulnerable_to_Flooding_in_Bengaluru_Urban"}, "geometry": {"type": "Point", "coordinates": [77.517489, 12.96595]}}, {"type": "Feature", "properties": {"name": null, "kind": "Location vulnerable to flooding", "source_layer": "Map_of_Locations_Vulnerable_to_Flooding_in_Bengaluru_Urban"}, "geometry": {"type": "Point", "coordinates": [77.682778, 12.966389]}}, {"type": "Feature", "properties": {"name": null, "kind": "Location vulnerable to flooding", "source_layer": "Map_of_Locations_Vulnerable_to_Flooding_in_Bengaluru_Urban"}, "geometry": {"type": "Point", "coordinates": [77.549697, 12.968405]}}, {"type": "Feature", "properties": {"name": null, "kind": "Location vulnerable to flooding", "source_layer": "Map_of_Locations_Vulnerable_to_Flooding_in_Bengaluru_Urban"}, "geometry": {"type": "Point", "coordinates": [77.692178, 12.969066]}}, {"type": "Feature", "properties": {"name": null, "kind": "Location vulnerable to flooding", "source_layer": "Map_of_Locations_Vulnerable_to_Flooding_in_Bengaluru_Urban"}, "geometry": {"type": "Point", "coordinates": [77.736686, 12.9693]}}, {"type": "Feature", "properties": {"name": null, "kind": "Location vulnerable to flooding", "source_layer": "Map_of_Locations_Vulnerable_to_Flooding_in_Bengaluru_Urban"}, "geometry": {"type": "Point", "coordinates": [77.609667, 12.970611]}}, {"type": "Feature", "properties": {"name": null, "kind": "Location vulnerable to flooding", "source_layer": "Map_of_Locations_Vulnerable_to_Flooding_in_Bengaluru_Urban"}, "geometry": {"type": "Point", "coordinates": [77.633611, 12.970833]}}, {"type": "Feature", "properties": {"name": null, "kind": "Location vulnerable to flooding", "source_layer": "Map_of_Locations_Vulnerable_to_Flooding_in_Bengaluru_Urban"}, "geometry": {"type": "Point", "coordinates": [77.518656, 12.971169]}}, {"type": "Feature", "properties": {"name": null, "kind": "Location vulnerable to flooding", "source_layer": "Map_of_Locations_Vulnerable_to_Flooding_in_Bengaluru_Urban"}, "geometry": {"type": "Point", "coordinates": [77.633333, 12.971667]}}, {"type": "Feature", "properties": {"name": null, "kind": "Location vulnerable to flooding", "source_layer": "Map_of_Locations_Vulnerable_to_Flooding_in_Bengaluru_Urban"}, "geometry": {"type": "Point", "coordinates": [77.554109, 12.972248]}}, {"type": "Feature", "properties": {"name": null, "kind": "Location vulnerable to flooding", "source_layer": "Map_of_Locations_Vulnerable_to_Flooding_in_Bengaluru_Urban"}, "geometry": {"type": "Point", "coordinates": [77.562883, 12.972619]}}, {"type": "Feature", "properties": {"name": null, "kind": "Location vulnerable to flooding", "source_layer": "Map_of_Locations_Vulnerable_to_Flooding_in_Bengaluru_Urban"}, "geometry": {"type": "Point", "coordinates": [77.546651, 12.97373]}}, {"type": "Feature", "properties": {"name": null, "kind": "Location vulnerable to flooding", "source_layer": "Map_of_Locations_Vulnerable_to_Flooding_in_Bengaluru_Urban"}, "geometry": {"type": "Point", "coordinates": [77.560417, 12.975217]}}, {"type": "Feature", "properties": {"name": null, "kind": "Location vulnerable to flooding", "source_layer": "Map_of_Locations_Vulnerable_to_Flooding_in_Bengaluru_Urban"}, "geometry": {"type": "Point", "coordinates": [77.562704, 12.975619]}}, {"type": "Feature", "properties": {"name": null, "kind": "Location vulnerable to flooding", "source_layer": "Map_of_Locations_Vulnerable_to_Flooding_in_Bengaluru_Urban"}, "geometry": {"type": "Point", "coordinates": [77.567347, 12.976597]}}, {"type": "Feature", "properties": {"name": null, "kind": "Location vulnerable to flooding", "source_layer": "Map_of_Locations_Vulnerable_to_Flooding_in_Bengaluru_Urban"}, "geometry": {"type": "Point", "coordinates": [77.627222, 12.978333]}}, {"type": "Feature", "properties": {"name": null, "kind": "Location vulnerable to flooding", "source_layer": "Map_of_Locations_Vulnerable_to_Flooding_in_Bengaluru_Urban"}, "geometry": {"type": "Point", "coordinates": [77.733753, 12.978889]}}, {"type": "Feature", "properties": {"name": null, "kind": "Location vulnerable to flooding", "source_layer": "Map_of_Locations_Vulnerable_to_Flooding_in_Bengaluru_Urban"}, "geometry": {"type": "Point", "coordinates": [77.569772, 12.98]}}, {"type": "Feature", "properties": {"name": null, "kind": "Location vulnerable to flooding", "source_layer": "Map_of_Locations_Vulnerable_to_Flooding_in_Bengaluru_Urban"}, "geometry": {"type": "Point", "coordinates": [77.565525, 12.98345]}}, {"type": "Feature", "properties": {"name": null, "kind": "Location vulnerable to flooding", "source_layer": "Map_of_Locations_Vulnerable_to_Flooding_in_Bengaluru_Urban"}, "geometry": {"type": "Point", "coordinates": [77.546064, 12.984117]}}, {"type": "Feature", "properties": {"name": null, "kind": "Location vulnerable to flooding", "source_layer": "Map_of_Locations_Vulnerable_to_Flooding_in_Bengaluru_Urban"}, "geometry": {"type": "Point", "coordinates": [77.604167, 12.986389]}}, {"type": "Feature", "properties": {"name": null, "kind": "Location vulnerable to flooding", "source_layer": "Map_of_Locations_Vulnerable_to_Flooding_in_Bengaluru_Urban"}, "geometry": {"type": "Point", "coordinates": [77.610278, 12.986389]}}, {"type": "Feature", "properties": {"name": null, "kind": "Location vulnerable to flooding", "source_layer": "Map_of_Locations_Vulnerable_to_Flooding_in_Bengaluru_Urban"}, "geometry": {"type": "Point", "coordinates": [77.489502, 12.987014]}}, {"type": "Feature", "properties": {"name": null, "kind": "Location vulnerable to flooding", "source_layer": "Map_of_Locations_Vulnerable_to_Flooding_in_Bengaluru_Urban"}, "geometry": {"type": "Point", "coordinates": [77.559297, 12.987564]}}, {"type": "Feature", "properties": {"name": null, "kind": "Location vulnerable to flooding", "source_layer": "Map_of_Locations_Vulnerable_to_Flooding_in_Bengaluru_Urban"}, "geometry": {"type": "Point", "coordinates": [77.690278, 12.988889]}}, {"type": "Feature", "properties": {"name": null, "kind": "Location vulnerable to flooding", "source_layer": "Map_of_Locations_Vulnerable_to_Flooding_in_Bengaluru_Urban"}, "geometry": {"type": "Point", "coordinates": [77.668333, 12.990278]}}, {"type": "Feature", "properties": {"name": null, "kind": "Location vulnerable to flooding", "source_layer": "Map_of_Locations_Vulnerable_to_Flooding_in_Bengaluru_Urban"}, "geometry": {"type": "Point", "coordinates": [77.54405, 12.990872]}}, {"type": "Feature", "properties": {"name": null, "kind": "Location vulnerable to flooding", "source_layer": "Map_of_Locations_Vulnerable_to_Flooding_in_Bengaluru_Urban"}, "geometry": {"type": "Point", "coordinates": [77.521437, 12.991243]}}, {"type": "Feature", "properties": {"name": null, "kind": "Location vulnerable to flooding", "source_layer": "Map_of_Locations_Vulnerable_to_Flooding_in_Bengaluru_Urban"}, "geometry": {"type": "Point", "coordinates": [77.570564, 12.991328]}}, {"type": "Feature", "properties": {"name": null, "kind": "Location vulnerable to flooding", "source_layer": "Map_of_Locations_Vulnerable_to_Flooding_in_Bengaluru_Urban"}, "geometry": {"type": "Point", "coordinates": [77.718137, 12.992015]}}, {"type": "Feature", "properties": {"name": null, "kind": "Location vulnerable to flooding", "source_layer": "Map_of_Locations_Vulnerable_to_Flooding_in_Bengaluru_Urban"}, "geometry": {"type": "Point", "coordinates": [77.557167, 12.993483]}}, {"type": "Feature", "properties": {"name": null, "kind": "Location vulnerable to flooding", "source_layer": "Map_of_Locations_Vulnerable_to_Flooding_in_Bengaluru_Urban"}, "geometry": {"type": "Point", "coordinates": [77.658889, 12.994722]}}, {"type": "Feature", "properties": {"name": null, "kind": "Location vulnerable to flooding", "source_layer": "Map_of_Locations_Vulnerable_to_Flooding_in_Bengaluru_Urban"}, "geometry": {"type": "Point", "coordinates": [77.692871, 12.99492]}}, {"type": "Feature", "properties": {"name": null, "kind": "Location vulnerable to flooding", "source_layer": "Map_of_Locations_Vulnerable_to_Flooding_in_Bengaluru_Urban"}, "geometry": {"type": "Point", "coordinates": [77.573383, 12.996014]}}, {"type": "Feature", "properties": {"name": null, "kind": "Location vulnerable to flooding", "source_layer": "Map_of_Locations_Vulnerable_to_Flooding_in_Bengaluru_Urban"}, "geometry": {"type": "Point", "coordinates": [77.488104, 12.996413]}}, {"type": "Feature", "properties": {"name": null, "kind": "Location vulnerable to flooding", "source_layer": "Map_of_Locations_Vulnerable_to_Flooding_in_Bengaluru_Urban"}, "geometry": {"type": "Point", "coordinates": [77.578042, 12.997414]}}, {"type": "Feature", "properties": {"name": null, "kind": "Location vulnerable to flooding", "source_layer": "Map_of_Locations_Vulnerable_to_Flooding_in_Bengaluru_Urban"}, "geometry": {"type": "Point", "coordinates": [77.573108, 12.997669]}}, {"type": "Feature", "properties": {"name": null, "kind": "Location vulnerable to flooding", "source_layer": "Map_of_Locations_Vulnerable_to_Flooding_in_Bengaluru_Urban"}, "geometry": {"type": "Point", "coordinates": [77.51674, 12.99822]}}, {"type": "Feature", "properties": {"name": null, "kind": "Location vulnerable to flooding", "source_layer": "Map_of_Locations_Vulnerable_to_Flooding_in_Bengaluru_Urban"}, "geometry": {"type": "Point", "coordinates": [77.527878, 13.001]}}, {"type": "Feature", "properties": {"name": null, "kind": "Location vulnerable to flooding", "source_layer": "Map_of_Locations_Vulnerable_to_Flooding_in_Bengaluru_Urban"}, "geometry": {"type": "Point", "coordinates": [77.516454, 13.001532]}}, {"type": "Feature", "properties": {"name": null, "kind": "Location vulnerable to flooding", "source_layer": "Map_of_Locations_Vulnerable_to_Flooding_in_Bengaluru_Urban"}, "geometry": {"type": "Point", "coordinates": [77.532553, 13.001756]}}, {"type": "Feature", "properties": {"name": null, "kind": "Location vulnerable to flooding", "source_layer": "Map_of_Locations_Vulnerable_to_Flooding_in_Bengaluru_Urban"}, "geometry": {"type": "Point", "coordinates": [77.563611, 13.003306]}}, {"type": "Feature", "properties": {"name": null, "kind": "Location vulnerable to flooding", "source_layer": "Map_of_Locations_Vulnerable_to_Flooding_in_Bengaluru_Urban"}, "geometry": {"type": "Point", "coordinates": [77.529047, 13.003567]}}, {"type": "Feature", "properties": {"name": null, "kind": "Location vulnerable to flooding", "source_layer": "Map_of_Locations_Vulnerable_to_Flooding_in_Bengaluru_Urban"}, "geometry": {"type": "Point", "coordinates": [77.529492, 13.004117]}}, {"type": "Feature", "properties": {"name": null, "kind": "Location vulnerable to flooding", "source_layer": "Map_of_Locations_Vulnerable_to_Flooding_in_Bengaluru_Urban"}, "geometry": {"type": "Point", "coordinates": [77.529317, 13.004175]}}, {"type": "Feature", "properties": {"name": null, "kind": "Location vulnerable to flooding", "source_layer": "Map_of_Locations_Vulnerable_to_Flooding_in_Bengaluru_Urban"}, "geometry": {"type": "Point", "coordinates": [77.529094, 13.004406]}}, {"type": "Feature", "properties": {"name": null, "kind": "Location vulnerable to flooding", "source_layer": "Map_of_Locations_Vulnerable_to_Flooding_in_Bengaluru_Urban"}, "geometry": {"type": "Point", "coordinates": [77.530042, 13.005864]}}, {"type": "Feature", "properties": {"name": null, "kind": "Location vulnerable to flooding", "source_layer": "Map_of_Locations_Vulnerable_to_Flooding_in_Bengaluru_Urban"}, "geometry": {"type": "Point", "coordinates": [77.672222, 13.006667]}}, {"type": "Feature", "properties": {"name": null, "kind": "Location vulnerable to flooding", "source_layer": "Map_of_Locations_Vulnerable_to_Flooding_in_Bengaluru_Urban"}, "geometry": {"type": "Point", "coordinates": [77.696389, 13.006667]}}, {"type": "Feature", "properties": {"name": null, "kind": "Location vulnerable to flooding", "source_layer": "Map_of_Locations_Vulnerable_to_Flooding_in_Bengaluru_Urban"}, "geometry": {"type": "Point", "coordinates": [77.636944, 13.008889]}}, {"type": "Feature", "properties": {"name": null, "kind": "Location vulnerable to flooding", "source_layer": "Map_of_Locations_Vulnerable_to_Flooding_in_Bengaluru_Urban"}, "geometry": {"type": "Point", "coordinates": [77.535528, 13.009511]}}, {"type": "Feature", "properties": {"name": null, "kind": "Location vulnerable to flooding", "source_layer": "Map_of_Locations_Vulnerable_to_Flooding_in_Bengaluru_Urban"}, "geometry": {"type": "Point", "coordinates": [77.680278, 13.010556]}}, {"type": "Feature", "properties": {"name": null, "kind": "Location vulnerable to flooding", "source_layer": "Map_of_Locations_Vulnerable_to_Flooding_in_Bengaluru_Urban"}, "geometry": {"type": "Point", "coordinates": [77.681389, 13.010833]}}, {"type": "Feature", "properties": {"name": null, "kind": "Location vulnerable to flooding", "source_layer": "Map_of_Locations_Vulnerable_to_Flooding_in_Bengaluru_Urban"}, "geometry": {"type": "Point", "coordinates": [77.528064, 13.010953]}}, {"type": "Feature", "properties": {"name": null, "kind": "Location vulnerable to flooding", "source_layer": "Map_of_Locations_Vulnerable_to_Flooding_in_Bengaluru_Urban"}, "geometry": {"type": "Point", "coordinates": [77.679167, 13.011389]}}, {"type": "Feature", "properties": {"name": null, "kind": "Location vulnerable to flooding", "source_layer": "Map_of_Locations_Vulnerable_to_Flooding_in_Bengaluru_Urban"}, "geometry": {"type": "Point", "coordinates": [77.51178, 13.01264]}}, {"type": "Feature", "properties": {"name": null, "kind": "Location vulnerable to flooding", "source_layer": "Map_of_Locations_Vulnerable_to_Flooding_in_Bengaluru_Urban"}, "geometry": {"type": "Point", "coordinates": [77.678889, 13.012778]}}, {"type": "Feature", "properties": {"name": null, "kind": "Location vulnerable to flooding", "source_layer": "Map_of_Locations_Vulnerable_to_Flooding_in_Bengaluru_Urban"}, "geometry": {"type": "Point", "coordinates": [77.561389, 13.012895]}}, {"type": "Feature", "properties": {"name": null, "kind": "Location vulnerable to flooding", "source_layer": "Map_of_Locations_Vulnerable_to_Flooding_in_Bengaluru_Urban"}, "geometry": {"type": "Point", "coordinates": [77.665556, 13.018611]}}, {"type": "Feature", "properties": {"name": null, "kind": "Location vulnerable to flooding", "source_layer": "Map_of_Locations_Vulnerable_to_Flooding_in_Bengaluru_Urban"}, "geometry": {"type": "Point", "coordinates": [77.634722, 13.018889]}}, {"type": "Feature", "properties": {"name": null, "kind": "Location vulnerable to flooding", "source_layer": "Map_of_Locations_Vulnerable_to_Flooding_in_Bengaluru_Urban"}, "geometry": {"type": "Point", "coordinates": [77.5825, 13.024722]}}, {"type": "Feature", "properties": {"name": null, "kind": "Location vulnerable to flooding", "source_layer": "Map_of_Locations_Vulnerable_to_Flooding_in_Bengaluru_Urban"}, "geometry": {"type": "Point", "coordinates": [77.584636, 13.029777]}}, {"type": "Feature", "properties": {"name": null, "kind": "Location vulnerable to flooding", "source_layer": "Map_of_Locations_Vulnerable_to_Flooding_in_Bengaluru_Urban"}, "geometry": {"type": "Point", "coordinates": [77.520142, 13.033097]}}, {"type": "Feature", "properties": {"name": null, "kind": "Location vulnerable to flooding", "source_layer": "Map_of_Locations_Vulnerable_to_Flooding_in_Bengaluru_Urban"}, "geometry": {"type": "Point", "coordinates": [77.490582, 13.033173]}}, {"type": "Feature", "properties": {"name": null, "kind": "Location vulnerable to flooding", "source_layer": "Map_of_Locations_Vulnerable_to_Flooding_in_Bengaluru_Urban"}, "geometry": {"type": "Point", "coordinates": [77.590278, 13.033333]}}, {"type": "Feature", "properties": {"name": null, "kind": "Location vulnerable to flooding", "source_layer": "Map_of_Locations_Vulnerable_to_Flooding_in_Bengaluru_Urban"}, "geometry": {"type": "Point", "coordinates": [77.600278, 13.033333]}}, {"type": "Feature", "properties": {"name": null, "kind": "Location vulnerable to flooding", "source_layer": "Map_of_Locations_Vulnerable_to_Flooding_in_Bengaluru_Urban"}, "geometry": {"type": "Point", "coordinates": [77.597222, 13.035556]}}, {"type": "Feature", "properties": {"name": null, "kind": "Location vulnerable to flooding", "source_layer": "Map_of_Locations_Vulnerable_to_Flooding_in_Bengaluru_Urban"}, "geometry": {"type": "Point", "coordinates": [77.681111, 13.036667]}}, {"type": "Feature", "properties": {"name": null, "kind": "Location vulnerable to flooding", "source_layer": "Map_of_Locations_Vulnerable_to_Flooding_in_Bengaluru_Urban"}, "geometry": {"type": "Point", "coordinates": [77.487117, 13.036698]}}, {"type": "Feature", "properties": {"name": null, "kind": "Location vulnerable to flooding", "source_layer": "Map_of_Locations_Vulnerable_to_Flooding_in_Bengaluru_Urban"}, "geometry": {"type": "Point", "coordinates": [77.556706, 13.036736]}}, {"type": "Feature", "properties": {"name": null, "kind": "Location vulnerable to flooding", "source_layer": "Map_of_Locations_Vulnerable_to_Flooding_in_Bengaluru_Urban"}, "geometry": {"type": "Point", "coordinates": [77.638056, 13.039167]}}, {"type": "Feature", "properties": {"name": null, "kind": "Location vulnerable to flooding", "source_layer": "Map_of_Locations_Vulnerable_to_Flooding_in_Bengaluru_Urban"}, "geometry": {"type": "Point", "coordinates": [77.519926, 13.039729]}}, {"type": "Feature", "properties": {"name": null, "kind": "Location vulnerable to flooding", "source_layer": "Map_of_Locations_Vulnerable_to_Flooding_in_Bengaluru_Urban"}, "geometry": {"type": "Point", "coordinates": [77.612222, 13.041111]}}, {"type": "Feature", "properties": {"name": null, "kind": "Location vulnerable to flooding", "source_layer": "Map_of_Locations_Vulnerable_to_Flooding_in_Bengaluru_Urban"}, "geometry": {"type": "Point", "coordinates": [77.47808, 13.04137]}}, {"type": "Feature", "properties": {"name": null, "kind": "Location vulnerable to flooding", "source_layer": "Map_of_Locations_Vulnerable_to_Flooding_in_Bengaluru_Urban"}, "geometry": {"type": "Point", "coordinates": [77.615556, 13.0425]}}, {"type": "Feature", "properties": {"name": null, "kind": "Location vulnerable to flooding", "source_layer": "Map_of_Locations_Vulnerable_to_Flooding_in_Bengaluru_Urban"}, "geometry": {"type": "Point", "coordinates": [77.591389, 13.0425]}}, {"type": "Feature", "properties": {"name": null, "kind": "Location vulnerable to flooding", "source_layer": "Map_of_Locations_Vulnerable_to_Flooding_in_Bengaluru_Urban"}, "geometry": {"type": "Point", "coordinates": [77.644722, 13.042778]}}, {"type": "Feature", "properties": {"name": null, "kind": "Location vulnerable to flooding", "source_layer": "Map_of_Locations_Vulnerable_to_Flooding_in_Bengaluru_Urban"}, "geometry": {"type": "Point", "coordinates": [77.598889, 13.043056]}}, {"type": "Feature", "properties": {"name": null, "kind": "Location vulnerable to flooding", "source_layer": "Map_of_Locations_Vulnerable_to_Flooding_in_Bengaluru_Urban"}, "geometry": {"type": "Point", "coordinates": [77.628056, 13.043611]}}, {"type": "Feature", "properties": {"name": null, "kind": "Location vulnerable to flooding", "source_layer": "Map_of_Locations_Vulnerable_to_Flooding_in_Bengaluru_Urban"}, "geometry": {"type": "Point", "coordinates": [77.600278, 13.043611]}}, {"type": "Feature", "properties": {"name": null, "kind": "Location vulnerable to flooding", "source_layer": "Map_of_Locations_Vulnerable_to_Flooding_in_Bengaluru_Urban"}, "geometry": {"type": "Point", "coordinates": [77.570833, 13.046667]}}, {"type": "Feature", "properties": {"name": null, "kind": "Location vulnerable to flooding", "source_layer": "Map_of_Locations_Vulnerable_to_Flooding_in_Bengaluru_Urban"}, "geometry": {"type": "Point", "coordinates": [77.50074, 13.04681]}}, {"type": "Feature", "properties": {"name": null, "kind": "Location vulnerable to flooding", "source_layer": "Map_of_Locations_Vulnerable_to_Flooding_in_Bengaluru_Urban"}, "geometry": {"type": "Point", "coordinates": [77.623611, 13.047222]}}, {"type": "Feature", "properties": {"name": null, "kind": "Location vulnerable to flooding", "source_layer": "Map_of_Locations_Vulnerable_to_Flooding_in_Bengaluru_Urban"}, "geometry": {"type": "Point", "coordinates": [77.593333, 13.047222]}}, {"type": "Feature", "properties": {"name": null, "kind": "Location vulnerable to flooding", "source_layer": "Map_of_Locations_Vulnerable_to_Flooding_in_Bengaluru_Urban"}, "geometry": {"type": "Point", "coordinates": [77.571667, 13.055]}}, {"type": "Feature", "properties": {"name": null, "kind": "Location vulnerable to flooding", "source_layer": "Map_of_Locations_Vulnerable_to_Flooding_in_Bengaluru_Urban"}, "geometry": {"type": "Point", "coordinates": [77.614722, 13.057778]}}, {"type": "Feature", "properties": {"name": null, "kind": "Location vulnerable to flooding", "source_layer": "Map_of_Locations_Vulnerable_to_Flooding_in_Bengaluru_Urban"}, "geometry": {"type": "Point", "coordinates": [77.51178, 13.06068]}}, {"type": "Feature", "properties": {"name": null, "kind": "Location vulnerable to flooding", "source_layer": "Map_of_Locations_Vulnerable_to_Flooding_in_Bengaluru_Urban"}, "geometry": {"type": "Point", "coordinates": [77.50116, 13.06087]}}, {"type": "Feature", "properties": {"name": null, "kind": "Location vulnerable to flooding", "source_layer": "Map_of_Locations_Vulnerable_to_Flooding_in_Bengaluru_Urban"}, "geometry": {"type": "Point", "coordinates": [77.53471, 13.06407]}}, {"type": "Feature", "properties": {"name": null, "kind": "Location vulnerable to flooding", "source_layer": "Map_of_Locations_Vulnerable_to_Flooding_in_Bengaluru_Urban"}, "geometry": {"type": "Point", "coordinates": [77.51178, 13.06634]}}, {"type": "Feature", "properties": {"name": null, "kind": "Location vulnerable to flooding", "source_layer": "Map_of_Locations_Vulnerable_to_Flooding_in_Bengaluru_Urban"}, "geometry": {"type": "Point", "coordinates": [77.50065, 13.06724]}}, {"type": "Feature", "properties": {"name": null, "kind": "Location vulnerable to flooding", "source_layer": "Map_of_Locations_Vulnerable_to_Flooding_in_Bengaluru_Urban"}, "geometry": {"type": "Point", "coordinates": [77.562778, 13.069167]}}, {"type": "Feature", "properties": {"name": null, "kind": "Location vulnerable to flooding", "source_layer": "Map_of_Locations_Vulnerable_to_Flooding_in_Bengaluru_Urban"}, "geometry": {"type": "Point", "coordinates": [77.593611, 13.0925]}}, {"type": "Feature", "properties": {"name": null, "kind": "Location vulnerable to flooding", "source_layer": "Map_of_Locations_Vulnerable_to_Flooding_in_Bengaluru_Urban"}, "geometry": {"type": "Point", "coordinates": [77.601111, 13.103056]}}, {"type": "Feature", "properties": {"name": null, "kind": "Location vulnerable to flooding", "source_layer": "Map_of_Locations_Vulnerable_to_Flooding_in_Bengaluru_Urban"}, "geometry": {"type": "Point", "coordinates": [77.593333, 13.110278]}}, {"type": "Feature", "properties": {"name": "Bhadrappa layout", "kind": "Flood-prone location", "source_layer": "Flood_Prone_Locations_Map"}, "geometry": {"type": "Point", "coordinates": [77.57602, 13.048408]}}, {"type": "Feature", "properties": {"name": "Sampangiram Nagar", "kind": "Flood-prone location", "source_layer": "Flood_Prone_Locations_Map"}, "geometry": {"type": "Point", "coordinates": [77.57468, 12.993629]}}, {"type": "Feature", "properties": {"name": "KEB Compound Maththikere", "kind": "Flood-prone location", "source_layer": "Flood_Prone_Locations_Map"}, "geometry": {"type": "Point", "coordinates": [77.558617, 13.036299]}}, {"type": "Feature", "properties": {"name": "Gubbanna Layout", "kind": "Flood-prone location", "source_layer": "Flood_Prone_Locations_Map"}, "geometry": {"type": "Point", "coordinates": [77.555646, 12.979209]}}, {"type": "Feature", "properties": {"name": "Minerva Mill", "kind": "Flood-prone location", "source_layer": "Flood_Prone_Locations_Map"}, "geometry": {"type": "Point", "coordinates": [77.564464, 12.979452]}}, {"type": "Feature", "properties": {"name": "Binny Mill Tank Area", "kind": "Flood-prone location", "source_layer": "Flood_Prone_Locations_Map"}, "geometry": {"type": "Point", "coordinates": [77.568083, 12.968746]}}, {"type": "Feature", "properties": {"name": "Binny Mill Tank Area", "kind": "Flood-prone location", "source_layer": "Flood_Prone_Locations_Map"}, "geometry": {"type": "Point", "coordinates": [77.571703, 12.97424]}}, {"type": "Feature", "properties": {"name": "Kamakshipalya Tank Slum Area", "kind": "Flood-prone location", "source_layer": "Flood_Prone_Locations_Map"}, "geometry": {"type": "Point", "coordinates": [77.527091, 12.988683]}}, {"type": "Feature", "properties": {"name": "Shivananda circle_Railway under pass", "kind": "Flood-prone location", "source_layer": "Flood_Prone_Locations_Map"}, "geometry": {"type": "Point", "coordinates": [77.577829, 12.987788]}}, {"type": "Feature", "properties": {"name": "Okalipuram Junction", "kind": "Flood-prone location", "source_layer": "Flood_Prone_Locations_Map"}, "geometry": {"type": "Point", "coordinates": [77.56893, 12.982687]}}, {"type": "Feature", "properties": {"name": "Mekhri circle", "kind": "Flood-prone location", "source_layer": "Flood_Prone_Locations_Map"}, "geometry": {"type": "Point", "coordinates": [77.583793, 13.016991]}}, {"type": "Feature", "properties": {"name": "Railway underbridge near Kino theatre", "kind": "Flood-prone location", "source_layer": "Flood_Prone_Locations_Map"}, "geometry": {"type": "Point", "coordinates": [77.574868, 12.984507]}}, {"type": "Feature", "properties": {"name": "Jagajeevan ram nagar", "kind": "Flood-prone location", "source_layer": "Flood_Prone_Locations_Map"}, "geometry": {"type": "Point", "coordinates": [77.550679, 12.965588]}}, {"type": "Feature", "properties": {"name": "Padarayan pura", "kind": "Flood-prone location", "source_layer": "Flood_Prone_Locations_Map"}, "geometry": {"type": "Point", "coordinates": [77.549606, 12.964563]}}, {"type": "Feature", "properties": {"name": "Cotton pete", "kind": "Flood-prone location", "source_layer": "Flood_Prone_Locations_Map"}, "geometry": {"type": "Point", "coordinates": [77.565447, 12.966685]}}, {"type": "Feature", "properties": {"name": "City Market Area", "kind": "Flood-prone location", "source_layer": "Flood_Prone_Locations_Map"}, "geometry": {"type": "Point", "coordinates": [77.584138, 12.965265]}}, {"type": "Feature", "properties": {"name": "Jayanagar 3rd\u00a0Block LIC Colony", "kind": "Flood-prone location", "source_layer": "Flood_Prone_Locations_Map"}, "geometry": {"type": "Point", "coordinates": [77.589531, 12.929768]}}, {"type": "Feature", "properties": {"name": "Krishnappa Garden behind Byrasandra Tank D/s", "kind": "Flood-prone location", "source_layer": "Flood_Prone_Locations_Map"}, "geometry": {"type": "Point", "coordinates": [77.598476, 12.929943]}}, {"type": "Feature", "properties": {"name": "Wilson Garden Area up to Bannerghatta Road", "kind": "Flood-prone location", "source_layer": "Flood_Prone_Locations_Map"}, "geometry": {"type": "Point", "coordinates": [77.597177, 12.948034]}}, {"type": "Feature", "properties": {"name": "Arekempannahalli Area", "kind": "Flood-prone location", "source_layer": "Flood_Prone_Locations_Map"}, "geometry": {"type": "Point", "coordinates": [77.593107, 12.946265]}}, {"type": "Feature", "properties": {"name": "Marehahalli Tank", "kind": "Flood-prone location", "source_layer": "Flood_Prone_Locations_Map"}, "geometry": {"type": "Point", "coordinates": [77.588436, 12.915301]}}, {"type": "Feature", "properties": {"name": "Bismillanagar \u2013 Agencies", "kind": "Flood-prone location", "source_layer": "Flood_Prone_Locations_Map"}, "geometry": {"type": "Point", "coordinates": [77.602199, 12.925853]}}, {"type": "Feature", "properties": {"name": "Ejipura", "kind": "Flood-prone location", "source_layer": "Flood_Prone_Locations_Map"}, "geometry": {"type": "Point", "coordinates": [77.63082, 12.938392]}}, {"type": "Feature", "properties": {"name": "Koramangala Slum", "kind": "Flood-prone location", "source_layer": "Flood_Prone_Locations_Map"}, "geometry": {"type": "Point", "coordinates": [77.627974, 12.924817]}}, {"type": "Feature", "properties": {"name": "Cholurpalya", "kind": "Flood-prone location", "source_layer": "Flood_Prone_Locations_Map"}, "geometry": {"type": "Point", "coordinates": [77.549051, 12.97201]}}, {"type": "Feature", "properties": {"name": "Bapujinagar", "kind": "Flood-prone location", "source_layer": "Flood_Prone_Locations_Map"}, "geometry": {"type": "Point", "coordinates": [77.539729, 12.956771]}}, {"type": "Feature", "properties": {"name": "Sanjaya Gandhi Slum Area", "kind": "Flood-prone location", "source_layer": "Flood_Prone_Locations_Map"}, "geometry": {"type": "Point", "coordinates": [77.592459, 12.927233]}}, {"type": "Feature", "properties": {"name": "NGV to HSR Layout", "kind": "Flood-prone location", "source_layer": "Flood_Prone_Locations_Map"}, "geometry": {"type": "Point", "coordinates": [77.620147, 12.948554]}}, {"type": "Feature", "properties": {"name": "Shanthi Nagar", "kind": "Flood-prone location", "source_layer": "Flood_Prone_Locations_Map"}, "geometry": {"type": "Point", "coordinates": [77.593239, 12.954259]}}, {"type": "Feature", "properties": {"name": "Vidyapeeta circle", "kind": "Flood-prone location", "source_layer": "Flood_Prone_Locations_Map"}, "geometry": {"type": "Point", "coordinates": [77.560866, 12.933396]}}, {"type": "Feature", "properties": {"name": "Srinvas nagar", "kind": "Flood-prone location", "source_layer": "Flood_Prone_Locations_Map"}, "geometry": {"type": "Point", "coordinates": [77.554778, 12.935582]}}, {"type": "Feature", "properties": {"name": "KH Road", "kind": "Flood-prone location", "source_layer": "Flood_Prone_Locations_Map"}, "geometry": {"type": "Point", "coordinates": [77.592032, 12.955464]}}, {"type": "Feature", "properties": {"name": "Magadi Police station", "kind": "Flood-prone location", "source_layer": "Flood_Prone_Locations_Map"}, "geometry": {"type": "Point", "coordinates": [77.55151, 12.974491]}}, {"type": "Feature", "properties": {"name": "RPC layout", "kind": "Flood-prone location", "source_layer": "Flood_Prone_Locations_Map"}, "geometry": {"type": "Point", "coordinates": [77.537898, 12.962782]}}, {"type": "Feature", "properties": {"name": "Ghali Anjaneya temple road", "kind": "Flood-prone location", "source_layer": "Flood_Prone_Locations_Map"}, "geometry": {"type": "Point", "coordinates": [77.541289, 12.952727]}}, {"type": "Feature", "properties": {"name": "Brindavananagar below Matthikere Tank Market", "kind": "Flood-prone location", "source_layer": "Flood_Prone_Locations_Map"}, "geometry": {"type": "Point", "coordinates": [77.555149, 13.034809]}}, {"type": "Feature", "properties": {"name": "Shankarappa Garden Gopalapura", "kind": "Flood-prone location", "source_layer": "Flood_Prone_Locations_Map"}, "geometry": {"type": "Point", "coordinates": [77.523011, 12.921671]}}, {"type": "Feature", "properties": {"name": "Kamakshipalya Tank Slum Area", "kind": "Flood-prone location", "source_layer": "Flood_Prone_Locations_Map"}, "geometry": {"type": "Point", "coordinates": [77.522042, 12.992806]}}, {"type": "Feature", "properties": {"name": "Yeshwanthpur Railway station", "kind": "Flood-prone location", "source_layer": "Flood_Prone_Locations_Map"}, "geometry": {"type": "Point", "coordinates": [77.550377, 13.023777]}}, {"type": "Feature", "properties": {"name": "BEML Layout in RR Nagar", "kind": "Flood-prone location", "source_layer": "Flood_Prone_Locations_Map"}, "geometry": {"type": "Point", "coordinates": [77.519661, 12.907736]}}, {"type": "Feature", "properties": {"name": "Nayandahalli", "kind": "Flood-prone location", "source_layer": "Flood_Prone_Locations_Map"}, "geometry": {"type": "Point", "coordinates": [77.524762, 12.941093]}}, {"type": "Feature", "properties": {"name": "Kengeri Yellamma temple", "kind": "Flood-prone location", "source_layer": "Flood_Prone_Locations_Map"}, "geometry": {"type": "Point", "coordinates": [77.482736, 12.898912]}}, {"type": "Feature", "properties": {"name": "Bhovi Colony, near Sane Guruvanahalli Tank", "kind": "Flood-prone location", "source_layer": "Flood_Prone_Locations_Map"}, "geometry": {"type": "Point", "coordinates": [77.676207, 13.012097]}}, {"type": "Feature", "properties": {"name": "HAL Airport Road", "kind": "Flood-prone location", "source_layer": "Flood_Prone_Locations_Map"}, "geometry": {"type": "Point", "coordinates": [77.682264, 12.954504]}}, {"type": "Feature", "properties": {"name": "Sulthan Palya Main Road", "kind": "Flood-prone location", "source_layer": "Flood_Prone_Locations_Map"}, "geometry": {"type": "Point", "coordinates": [77.604783, 13.029909]}}, {"type": "Feature", "properties": {"name": "Pillappa Garden \u2013 Agencies", "kind": "Flood-prone location", "source_layer": "Flood_Prone_Locations_Map"}, "geometry": {"type": "Point", "coordinates": [77.591178, 13.025907]}}, {"type": "Feature", "properties": {"name": "Anandanagara", "kind": "Flood-prone location", "source_layer": "Flood_Prone_Locations_Map"}, "geometry": {"type": "Point", "coordinates": [77.591312, 13.031328]}}, {"type": "Feature", "properties": {"name": "Miller Tank,", "kind": "Flood-prone location", "source_layer": "Flood_Prone_Locations_Map"}, "geometry": {"type": "Point", "coordinates": [77.598064, 12.991994]}}, {"type": "Feature", "properties": {"name": "Miller Tank,\u00a0 Chinnappa Garden", "kind": "Flood-prone location", "source_layer": "Flood_Prone_Locations_Map"}, "geometry": {"type": "Point", "coordinates": [77.602972, 13.002206]}}, {"type": "Feature", "properties": {"name": "Saraswathipuram \u2013 Jogu Palya", "kind": "Flood-prone location", "source_layer": "Flood_Prone_Locations_Map"}, "geometry": {"type": "Point", "coordinates": [77.63289, 12.972383]}}, {"type": "Feature", "properties": {"name": "K R Garden", "kind": "Flood-prone location", "source_layer": "Flood_Prone_Locations_Map"}, "geometry": {"type": "Point", "coordinates": [77.656156, 12.954015]}}, {"type": "Feature", "properties": {"name": "Rudrappa Garden", "kind": "Flood-prone location", "source_layer": "Flood_Prone_Locations_Map"}, "geometry": {"type": "Point", "coordinates": [77.617996, 12.959964]}}, {"type": "Feature", "properties": {"name": "TV tower-Jaymahal extension", "kind": "Flood-prone location", "source_layer": "Flood_Prone_Locations_Map"}, "geometry": {"type": "Point", "coordinates": [77.591904, 13.008077]}}, {"type": "Feature", "properties": {"name": "hotel Chalukya Junction", "kind": "Flood-prone location", "source_layer": "Flood_Prone_Locations_Map"}, "geometry": {"type": "Point", "coordinates": [77.588161, 12.984499]}}, {"type": "Feature", "properties": {"name": "Dommlur", "kind": "Flood-prone location", "source_layer": "Flood_Prone_Locations_Map"}, "geometry": {"type": "Point", "coordinates": [77.638739, 12.960933]}}, {"type": "Feature", "properties": {"name": "Ulsoor", "kind": "Flood-prone location", "source_layer": "Flood_Prone_Locations_Map"}, "geometry": {"type": "Point", "coordinates": [77.623968, 12.981958]}}, {"type": "Feature", "properties": {"name": "DJ Halli", "kind": "Flood-prone location", "source_layer": "Flood_Prone_Locations_Map"}, "geometry": {"type": "Point", "coordinates": [77.610288, 13.009268]}}, {"type": "Feature", "properties": {"name": "KR circle Underpass", "kind": "Flood-prone location", "source_layer": "Flood_Prone_Locations_Map"}, "geometry": {"type": "Point", "coordinates": [77.587323, 12.975429]}}, {"type": "Feature", "properties": {"name": "Ashok Nagar\n,museum road", "kind": "Flood-prone location", "source_layer": "Flood_Prone_Locations_Map"}, "geometry": {"type": "Point", "coordinates": [77.604797, 12.970776]}}, {"type": "Feature", "properties": {"name": "UB city  road", "kind": "Flood-prone location", "source_layer": "Flood_Prone_Locations_Map"}, "geometry": {"type": "Point", "coordinates": [77.596618, 12.971329]}}, {"type": "Feature", "properties": {"name": "New Thippasandra", "kind": "Flood-prone location", "source_layer": "Flood_Prone_Locations_Map"}, "geometry": {"type": "Point", "coordinates": [77.654143, 12.972032]}}, {"type": "Feature", "properties": {"name": "Cox town", "kind": "Flood-prone location", "source_layer": "Flood_Prone_Locations_Map"}, "geometry": {"type": "Point", "coordinates": [77.623408, 12.995442]}}, {"type": "Feature", "properties": {"name": "Thippasandra", "kind": "Flood-prone location", "source_layer": "Flood_Prone_Locations_Map"}, "geometry": {"type": "Point", "coordinates": [77.646811, 12.973707]}}, {"type": "Feature", "properties": {"name": "Indiranagar 80ft road", "kind": "Flood-prone location", "source_layer": "Flood_Prone_Locations_Map"}, "geometry": {"type": "Point", "coordinates": [77.647744, 12.968873]}}, {"type": "Feature", "properties": {"name": "Pulakeshinagara", "kind": "Flood-prone location", "source_layer": "Flood_Prone_Locations_Map"}, "geometry": {"type": "Point", "coordinates": [77.609904, 12.996841]}}, {"type": "Feature", "properties": {"name": "Banaswadi", "kind": "Flood-prone location", "source_layer": "Flood_Prone_Locations_Map"}, "geometry": {"type": "Point", "coordinates": [77.647129, 13.011904]}}, {"type": "Feature", "properties": {"name": "Sarjapur road", "kind": "Flood-prone location", "source_layer": "Flood_Prone_Locations_Map"}, "geometry": {"type": "Point", "coordinates": [77.499379, 13.006586]}}, {"type": "Feature", "properties": {"name": "NGV to HSR Layout", "kind": "Flood-prone location", "source_layer": "Flood_Prone_Locations_Map"}, "geometry": {"type": "Point", "coordinates": [77.647668, 12.90677]}}, {"type": "Feature", "properties": {"name": "Kallena Agrahara in Arekere", "kind": "Flood-prone location", "source_layer": "Flood_Prone_Locations_Map"}, "geometry": {"type": "Point", "coordinates": [77.593502, 12.87097]}}, {"type": "Feature", "properties": {"name": "RR Layout in Arekere & Hulimavu junction", "kind": "Flood-prone location", "source_layer": "Flood_Prone_Locations_Map"}, "geometry": {"type": "Point", "coordinates": [77.596581, 12.88424]}}, {"type": "Feature", "properties": {"name": "Gurudarshan Layout,Near Doddabommasandra", "kind": "BBMP low-lying area", "source_layer": "BBMP_Low_Lying_Areas"}, "geometry": {"type": "Point", "coordinates": [77.559324, 13.071537]}}, {"type": "Feature", "properties": {"name": "Devi Nagara", "kind": "BBMP low-lying area", "source_layer": "BBMP_Low_Lying_Areas"}, "geometry": {"type": "Point", "coordinates": [77.573025, 13.052073]}}, {"type": "Feature", "properties": {"name": "JRD Tata Nagar", "kind": "BBMP low-lying area", "source_layer": "BBMP_Low_Lying_Areas"}, "geometry": {"type": "Point", "coordinates": [77.573364, 13.055279]}}, {"type": "Feature", "properties": {"name": "Bhadrappa Layout, Nagashettihalli", "kind": "BBMP low-lying area", "source_layer": "BBMP_Low_Lying_Areas"}, "geometry": {"type": "Point", "coordinates": [77.573961, 13.048669]}}, {"type": "Feature", "properties": {"name": "Someshwara Nagar", "kind": "BBMP low-lying area", "source_layer": "BBMP_Low_Lying_Areas"}, "geometry": {"type": "Point", "coordinates": [77.579297, 13.092327]}}, {"type": "Feature", "properties": {"name": "EWS working colony 3rd stage", "kind": "BBMP low-lying area", "source_layer": "BBMP_Low_Lying_Areas"}, "geometry": {"type": "Point", "coordinates": [77.582441, 13.093543]}}, {"type": "Feature", "properties": {"name": "Attur, Near Dairy Circle", "kind": "BBMP low-lying area", "source_layer": "BBMP_Low_Lying_Areas"}, "geometry": {"type": "Point", "coordinates": [77.568995, 13.107285]}}, {"type": "Feature", "properties": {"name": "Balaji Layout, Near Tata Nagar", "kind": "BBMP low-lying area", "source_layer": "BBMP_Low_Lying_Areas"}, "geometry": {"type": "Point", "coordinates": [77.576472, 13.05401]}}, {"type": "Feature", "properties": {"name": "Shankrappa Layout,MAruthi nagar", "kind": "BBMP low-lying area", "source_layer": "BBMP_Low_Lying_Areas"}, "geometry": {"type": "Point", "coordinates": [77.605114, 13.103662]}}, {"type": "Feature", "properties": {"name": "Kempapura", "kind": "BBMP low-lying area", "source_layer": "BBMP_Low_Lying_Areas"}, "geometry": {"type": "Point", "coordinates": [77.60481, 13.048485]}}, {"type": "Feature", "properties": {"name": "Mariyanna Palya", "kind": "BBMP low-lying area", "source_layer": "BBMP_Low_Lying_Areas"}, "geometry": {"type": "Point", "coordinates": [77.615372, 13.051319]}}, {"type": "Feature", "properties": {"name": "Telecom layout,Ashwathnagar", "kind": "BBMP low-lying area", "source_layer": "BBMP_Low_Lying_Areas"}, "geometry": {"type": "Point", "coordinates": [77.634656, 13.055844]}}, {"type": "Feature", "properties": {"name": "Sanguruvanahalli", "kind": "BBMP low-lying area", "source_layer": "BBMP_Low_Lying_Areas"}, "geometry": {"type": "Point", "coordinates": [77.540867, 12.990867]}}, {"type": "Feature", "properties": {"name": "8TH CROSS 6TH BLOCK SANKARAPPA GARDEN ,RAJAJINAGAR", "kind": "BBMP low-lying area", "source_layer": "BBMP_Low_Lying_Areas"}, "geometry": {"type": "Point", "coordinates": [77.552533, 12.981399]}}, {"type": "Feature", "properties": {"name": "BHAKSHI GARDEN", "kind": "BBMP low-lying area", "source_layer": "BBMP_Low_Lying_Areas"}, "geometry": {"type": "Point", "coordinates": [77.566055, 12.96843]}}, {"type": "Feature", "properties": {"name": "SANJEEVAPPA GARDEN", "kind": "BBMP low-lying area", "source_layer": "BBMP_Low_Lying_Areas"}, "geometry": {"type": "Point", "coordinates": [77.558805, 13.028223]}}, {"type": "Feature", "properties": {"name": "NAGANNA NAGAR,NEAR BINNIY MILL ROAD", "kind": "BBMP low-lying area", "source_layer": "BBMP_Low_Lying_Areas"}, "geometry": {"type": "Point", "coordinates": [77.568751, 12.967097]}}, {"type": "Feature", "properties": {"name": "KANTEERAVA NAGARA", "kind": "BBMP low-lying area", "source_layer": "BBMP_Low_Lying_Areas"}, "geometry": {"type": "Point", "coordinates": [77.541546, 13.019605]}}, {"type": "Feature", "properties": {"name": "KAMALANAGAR", "kind": "BBMP low-lying area", "source_layer": "BBMP_Low_Lying_Areas"}, "geometry": {"type": "Point", "coordinates": [77.557861, 13.022687]}}, {"type": "Feature", "properties": {"name": "12th  cross gubbanalayout industrial area", "kind": "BBMP low-lying area", "source_layer": "BBMP_Low_Lying_Areas"}, "geometry": {"type": "Point", "coordinates": [77.555546, 12.978705]}}, {"type": "Feature", "properties": {"name": "SARVABHOUMA NAGAR-WARD NO 131 NAYANDHALLI", "kind": "BBMP low-lying area", "source_layer": "BBMP_Low_Lying_Areas"}, "geometry": {"type": "Point", "coordinates": [77.526379, 12.950779]}}, {"type": "Feature", "properties": {"name": "14TH CROSS P&T COLONY,CHOLARPALYA", "kind": "BBMP low-lying area", "source_layer": "BBMP_Low_Lying_Areas"}, "geometry": {"type": "Point", "coordinates": [77.547741, 12.991323]}}, {"type": "Feature", "properties": {"name": "1ST MAIN 8TH CROSS N.R.GARDEN,CHOLARPALYA", "kind": "BBMP low-lying area", "source_layer": "BBMP_Low_Lying_Areas"}, "geometry": {"type": "Point", "coordinates": [77.543553, 12.992941]}}, {"type": "Feature", "properties": {"name": "MUDALPALYA", "kind": "BBMP low-lying area", "source_layer": "BBMP_Low_Lying_Areas"}, "geometry": {"type": "Point", "coordinates": [77.531387, 13.014327]}}, {"type": "Feature", "properties": {"name": "METRO LAYOUT-WARD NO 131,NEAR NAYANDHALLI", "kind": "BBMP low-lying area", "source_layer": "BBMP_Low_Lying_Areas"}, "geometry": {"type": "Point", "coordinates": [77.530224, 12.965437]}}, {"type": "Feature", "properties": {"name": "bismillanagar", "kind": "BBMP low-lying area", "source_layer": "BBMP_Low_Lying_Areas"}, "geometry": {"type": "Point", "coordinates": [77.603111, 12.926952]}}, {"type": "Feature", "properties": {"name": "rudrappa garden", "kind": "BBMP low-lying area", "source_layer": "BBMP_Low_Lying_Areas"}, "geometry": {"type": "Point", "coordinates": [77.547572, 12.956324]}}, {"type": "Feature", "properties": {"name": "samrudhinagar", "kind": "BBMP low-lying area", "source_layer": "BBMP_Low_Lying_Areas"}, "geometry": {"type": "Point", "coordinates": [77.546893, 12.952625]}}, {"type": "Feature", "properties": {"name": "silkboardjunction", "kind": "BBMP low-lying area", "source_layer": "BBMP_Low_Lying_Areas"}, "geometry": {"type": "Point", "coordinates": [77.559872, 12.896674]}}, {"type": "Feature", "properties": {"name": "SOMESHWARA COLONY NEAR SILK BOARD JUNCTION", "kind": "BBMP low-lying area", "source_layer": "BBMP_Low_Lying_Areas"}, "geometry": {"type": "Point", "coordinates": [77.615996, 12.915518]}}, {"type": "Feature", "properties": {"name": "MARUTHI NAGAR, SANKRAPPA LAYOUT", "kind": "BBMP low-lying area", "source_layer": "BBMP_Low_Lying_Areas"}, "geometry": {"type": "Point", "coordinates": [77.628961, 12.917843]}}, {"type": "Feature", "properties": {"name": "VENKATAREDDY NAGAR,SIDDAPURA", "kind": "BBMP low-lying area", "source_layer": "BBMP_Low_Lying_Areas"}, "geometry": {"type": "Point", "coordinates": [77.596505, 12.948752]}}, {"type": "Feature", "properties": {"name": "VITTALA NAGAR , NEAR KEMPEGOWDANAGAR", "kind": "BBMP low-lying area", "source_layer": "BBMP_Low_Lying_Areas"}, "geometry": {"type": "Point", "coordinates": [77.542285, 12.953108]}}, {"type": "Feature", "properties": {"name": "MARUTHI NAGARA ,NEAR BAPUJI NAGARA", "kind": "BBMP low-lying area", "source_layer": "BBMP_Low_Lying_Areas"}, "geometry": {"type": "Point", "coordinates": [77.538396, 12.955497]}}, {"type": "Feature", "properties": {"name": "RANGANATHA LAYOUT,BHEL CIRCLE", "kind": "BBMP low-lying area", "source_layer": "BBMP_Low_Lying_Areas"}, "geometry": {"type": "Point", "coordinates": [77.535384, 12.947511]}}, {"type": "Feature", "properties": {"name": "PWD QUARTERS NEAR WISLSON GARDEN", "kind": "BBMP low-lying area", "source_layer": "BBMP_Low_Lying_Areas"}, "geometry": {"type": "Point", "coordinates": [77.597968, 12.948594]}}, {"type": "Feature", "properties": {"name": "ASHWINI LAYOUT", "kind": "BBMP low-lying area", "source_layer": "BBMP_Low_Lying_Areas"}, "geometry": {"type": "Point", "coordinates": [77.62919, 12.940539]}}, {"type": "Feature", "properties": {"name": "EJIPURA", "kind": "BBMP low-lying area", "source_layer": "BBMP_Low_Lying_Areas"}, "geometry": {"type": "Point", "coordinates": [77.627296, 12.943109]}}, {"type": "Feature", "properties": {"name": "LAKSHMAN RAO NAGARA", "kind": "BBMP low-lying area", "source_layer": "BBMP_Low_Lying_Areas"}, "geometry": {"type": "Point", "coordinates": [77.614683, 12.949079]}}, {"type": "Feature", "properties": {"name": "Kengunta,Near Mallathalli", "kind": "BBMP low-lying area", "source_layer": "BBMP_Low_Lying_Areas"}, "geometry": {"type": "Point", "coordinates": [77.499259, 12.959254]}}, {"type": "Feature", "properties": {"name": "Sri Hari layout", "kind": "BBMP low-lying area", "source_layer": "BBMP_Low_Lying_Areas"}, "geometry": {"type": "Point", "coordinates": [77.494171, 12.957438]}}, {"type": "Feature", "properties": {"name": "Near Vidyanikethan School", "kind": "BBMP low-lying area", "source_layer": "BBMP_Low_Lying_Areas"}, "geometry": {"type": "Point", "coordinates": [77.488698, 12.956032]}}, {"type": "Feature", "properties": {"name": "Vinayaka Layout,Near Nagarabhavi", "kind": "BBMP low-lying area", "source_layer": "BBMP_Low_Lying_Areas"}, "geometry": {"type": "Point", "coordinates": [77.514889, 12.964788]}}, {"type": "Feature", "properties": {"name": "Bandemata-Near Kengeri", "kind": "BBMP low-lying area", "source_layer": "BBMP_Low_Lying_Areas"}, "geometry": {"type": "Point", "coordinates": [77.488522, 12.913138]}}, {"type": "Feature", "properties": {"name": "Janapriya Apartments,Near Rajarajeshwari Temple", "kind": "BBMP low-lying area", "source_layer": "BBMP_Low_Lying_Areas"}, "geometry": {"type": "Point", "coordinates": [77.508905, 12.927633]}}, {"type": "Feature", "properties": {"name": "Kenchenahalli", "kind": "BBMP low-lying area", "source_layer": "BBMP_Low_Lying_Areas"}, "geometry": {"type": "Point", "coordinates": [77.509445, 12.930472]}}, {"type": "Feature", "properties": {"name": "Shivanna Layout,Near Halagevaddarahalli", "kind": "BBMP low-lying area", "source_layer": "BBMP_Low_Lying_Areas"}, "geometry": {"type": "Point", "coordinates": [77.51902, 12.920464]}}, {"type": "Feature", "properties": {"name": "BRINDAVAN NAGAR", "kind": "BBMP low-lying area", "source_layer": "BBMP_Low_Lying_Areas"}, "geometry": {"type": "Point", "coordinates": [77.55458, 13.034625]}}, {"type": "Feature", "properties": {"name": "CHICKKABIDRIKAL", "kind": "BBMP low-lying area", "source_layer": "BBMP_Low_Lying_Areas"}, "geometry": {"type": "Point", "coordinates": [77.490517, 13.044566]}}, {"type": "Feature", "properties": {"name": "ANJANA NAGARA ,NEAR ANJANEYA TEMPLE (WARD NO 72)", "kind": "BBMP low-lying area", "source_layer": "BBMP_Low_Lying_Areas"}, "geometry": {"type": "Point", "coordinates": [77.481959, 12.988674]}}, {"type": "Feature", "properties": {"name": "BYRAVESHWARA NAGARA , HAGGANAHALLI", "kind": "BBMP low-lying area", "source_layer": "BBMP_Low_Lying_Areas"}, "geometry": {"type": "Point", "coordinates": [77.504201, 12.989322]}}, {"type": "Feature", "properties": {"name": "CHOWDESHWARINAGAR,RAJIV GANDHI CIRCLE ,LAGGERE", "kind": "BBMP low-lying area", "source_layer": "BBMP_Low_Lying_Areas"}, "geometry": {"type": "Point", "coordinates": [77.526952, 13.009711]}}, {"type": "Feature", "properties": {"name": "KALIKA NAGARA MAIN ROAD (WARD NO 41)", "kind": "BBMP low-lying area", "source_layer": "BBMP_Low_Lying_Areas"}, "geometry": {"type": "Point", "coordinates": [77.491958, 13.009936]}}, {"type": "Feature", "properties": {"name": "KOTTIGEPALYA", "kind": "BBMP low-lying area", "source_layer": "BBMP_Low_Lying_Areas"}, "geometry": {"type": "Point", "coordinates": [77.512042, 12.98597]}}, {"type": "Feature", "properties": {"name": "RUKMINI NAGARA NEAR MAGADI ROAD (WARD NO 73)", "kind": "BBMP low-lying area", "source_layer": "BBMP_Low_Lying_Areas"}, "geometry": {"type": "Point", "coordinates": [77.493881, 13.041586]}}, {"type": "Feature", "properties": {"name": "SHIVANANDANAGARA", "kind": "BBMP low-lying area", "source_layer": "BBMP_Low_Lying_Areas"}, "geometry": {"type": "Point", "coordinates": [77.495142, 13.006781]}}, {"type": "Feature", "properties": {"name": "KALLAPA LAYOUT NEAR BASAVANAGARA", "kind": "BBMP low-lying area", "source_layer": "BBMP_Low_Lying_Areas"}, "geometry": {"type": "Point", "coordinates": [77.6869, 12.96784]}}, {"type": "Feature", "properties": {"name": "TALA KAVERI LAYOUT NEAR HAL AIRPORT", "kind": "BBMP low-lying area", "source_layer": "BBMP_Low_Lying_Areas"}, "geometry": {"type": "Point", "coordinates": [77.686208, 12.960494]}}, {"type": "Feature", "properties": {"name": "SJR DENTAL COLLEGE MAIN ROAD", "kind": "BBMP low-lying area", "source_layer": "BBMP_Low_Lying_Areas"}, "geometry": {"type": "Point", "coordinates": [77.703029, 12.948996]}}, {"type": "Feature", "properties": {"name": "GANDHIPURAM NEAR WHITE FIELD", "kind": "BBMP low-lying area", "source_layer": "BBMP_Low_Lying_Areas"}, "geometry": {"type": "Point", "coordinates": [77.755935, 12.971316]}}, {"type": "Feature", "properties": {"name": "UDAYANAGARA NEAR A NARAYANPURA", "kind": "BBMP low-lying area", "source_layer": "BBMP_Low_Lying_Areas"}, "geometry": {"type": "Point", "coordinates": [77.675599, 12.990081]}}, {"type": "Feature", "properties": {"name": "PAI LAYOUT", "kind": "BBMP low-lying area", "source_layer": "BBMP_Low_Lying_Areas"}, "geometry": {"type": "Point", "coordinates": [77.668829, 12.991415]}}, {"type": "Feature", "properties": {"name": "CHINAPPA LAYOUT", "kind": "BBMP low-lying area", "source_layer": "BBMP_Low_Lying_Areas"}, "geometry": {"type": "Point", "coordinates": [77.685587, 12.985366]}}, {"type": "Feature", "properties": {"name": "GARUDACHARPLAYA BASAVANAGARA", "kind": "BBMP low-lying area", "source_layer": "BBMP_Low_Lying_Areas"}, "geometry": {"type": "Point", "coordinates": [77.719487, 12.986618]}}, {"type": "Feature", "properties": {"name": "PASTTANDUR AGRAHARA NEAR ITPL", "kind": "BBMP low-lying area", "source_layer": "BBMP_Low_Lying_Areas"}, "geometry": {"type": "Point", "coordinates": [77.735077, 12.974947]}}, {"type": "Feature", "properties": {"name": "SAI BABA ASHRAM KADUGODI", "kind": "BBMP low-lying area", "source_layer": "BBMP_Low_Lying_Areas"}, "geometry": {"type": "Point", "coordinates": [77.754159, 13.001554]}}, {"type": "Feature", "properties": {"name": "PATTALAMMA LAYOUT NEAR KADUGODI", "kind": "BBMP low-lying area", "source_layer": "BBMP_Low_Lying_Areas"}, "geometry": {"type": "Point", "coordinates": [77.759073, 12.998829]}}, {"type": "Feature", "properties": {"name": "SIDDHARTHA LAYOUT KADUGODI", "kind": "BBMP low-lying area", "source_layer": "BBMP_Low_Lying_Areas"}, "geometry": {"type": "Point", "coordinates": [77.763192, 12.997007]}}, {"type": "Feature", "properties": {"name": "TRIVENI NAGAR NEAR KR PURAM", "kind": "BBMP low-lying area", "source_layer": "BBMP_Low_Lying_Areas"}, "geometry": {"type": "Point", "coordinates": [77.719902, 13.023151]}}, {"type": "Feature", "properties": {"name": "KRISHNANAGARA , NEAR CHIKKADEVSANDRA", "kind": "BBMP low-lying area", "source_layer": "BBMP_Low_Lying_Areas"}, "geometry": {"type": "Point", "coordinates": [77.706548, 13.005344]}}, {"type": "Feature", "properties": {"name": "VINAYAKA LAYOUT NEAR BASAVANAPURA MAIN ROAD", "kind": "BBMP low-lying area", "source_layer": "BBMP_Low_Lying_Areas"}, "geometry": {"type": "Point", "coordinates": [77.706673, 13.014299]}}, {"type": "Feature", "properties": {"name": "HOYSALANAGARA KR PURA", "kind": "BBMP low-lying area", "source_layer": "BBMP_Low_Lying_Areas"}, "geometry": {"type": "Point", "coordinates": [77.665983, 13.017243]}}, {"type": "Feature", "properties": {"name": "RR LAYOUT  NEAR VIJNANAPURA", "kind": "BBMP low-lying area", "source_layer": "BBMP_Low_Lying_Areas"}, "geometry": {"type": "Point", "coordinates": [77.675809, 13.011501]}}, {"type": "Feature", "properties": {"name": "DR AMBEDKAR NAGAR NEAR VIJNANAPURA", "kind": "BBMP low-lying area", "source_layer": "BBMP_Low_Lying_Areas"}, "geometry": {"type": "Point", "coordinates": [77.686649, 13.015196]}}, {"type": "Feature", "properties": {"name": "ABBAREDDY LAYOUT ,VIJNANA NAGARA", "kind": "BBMP low-lying area", "source_layer": "BBMP_Low_Lying_Areas"}, "geometry": {"type": "Point", "coordinates": [77.680829, 12.980353]}}, {"type": "Feature", "properties": {"name": "Vaddara palya, Near Hennur Bande", "kind": "BBMP low-lying area", "source_layer": "BBMP_Low_Lying_Areas"}, "geometry": {"type": "Point", "coordinates": [77.644374, 13.04011]}}, {"type": "Feature", "properties": {"name": "BHUVANESHWARI NAGARA WARD NO 15", "kind": "BBMP low-lying area", "source_layer": "BBMP_Low_Lying_Areas"}, "geometry": {"type": "Point", "coordinates": [77.507982, 13.042979]}}, {"type": "Feature", "properties": {"name": "BAGALKUNTE( L NARSIMHAYA LAYOUT)", "kind": "BBMP low-lying area", "source_layer": "BBMP_Low_Lying_Areas"}, "geometry": {"type": "Point", "coordinates": [77.503017, 13.064251]}}, {"type": "Feature", "properties": {"name": "KEMPEGOWDANAGAR", "kind": "BBMP low-lying area", "source_layer": "BBMP_Low_Lying_Areas"}, "geometry": {"type": "Point", "coordinates": [77.510646, 13.045112]}}, {"type": "Feature", "properties": {"name": "NELEGADARANAHALLI", "kind": "BBMP low-lying area", "source_layer": "BBMP_Low_Lying_Areas"}, "geometry": {"type": "Point", "coordinates": [77.502142, 13.033632]}}, {"type": "Feature", "properties": {"name": "SHIVAPURA KERE NEAR NTTF", "kind": "BBMP low-lying area", "source_layer": "BBMP_Low_Lying_Areas"}, "geometry": {"type": "Point", "coordinates": [77.505858, 13.026011]}}, {"type": "Feature", "properties": {"name": "SHAMPURA SLUM", "kind": "BBMP low-lying area", "source_layer": "BBMP_Low_Lying_Areas"}, "geometry": {"type": "Point", "coordinates": [77.613497, 13.022821]}}, {"type": "Feature", "properties": {"name": "BASAVANNA NAGARA NEAR KADUGODANAHALLI", "kind": "BBMP low-lying area", "source_layer": "BBMP_Low_Lying_Areas"}, "geometry": {"type": "Point", "coordinates": [77.619731, 13.019739]}}, {"type": "Feature", "properties": {"name": "THAMMANA LAYOUT NEAR LINGARAJAPURA,", "kind": "BBMP low-lying area", "source_layer": "BBMP_Low_Lying_Areas"}, "geometry": {"type": "Point", "coordinates": [77.628758, 13.009947]}}, {"type": "Feature", "properties": {"name": "MUNIREDDY PALYA", "kind": "BBMP low-lying area", "source_layer": "BBMP_Low_Lying_Areas"}, "geometry": {"type": "Point", "coordinates": [77.601026, 13.007065]}}, {"type": "Feature", "properties": {"name": "CHINAPPA GARDEN", "kind": "BBMP low-lying area", "source_layer": "BBMP_Low_Lying_Areas"}, "geometry": {"type": "Point", "coordinates": [77.6026, 13.002968]}}, {"type": "Feature", "properties": {"name": "AMBEDKAR NAGAR NEAR BYAPPANAHALLI", "kind": "BBMP low-lying area", "source_layer": "BBMP_Low_Lying_Areas"}, "geometry": {"type": "Point", "coordinates": [77.640502, 12.988099]}}, {"type": "Feature", "properties": {"name": "BANDAPPA COLONY , NEAR NEW BYAPPANAHALLI", "kind": "BBMP low-lying area", "source_layer": "BBMP_Low_Lying_Areas"}, "geometry": {"type": "Point", "coordinates": [77.640679, 12.984318]}}, {"type": "Feature", "properties": {"name": "CAMBRIDGE LAYOUT", "kind": "BBMP low-lying area", "source_layer": "BBMP_Low_Lying_Areas"}, "geometry": {"type": "Point", "coordinates": [77.62667, 12.97329]}}, {"type": "Feature", "properties": {"name": "BHARATHI NAGARA", "kind": "BBMP low-lying area", "source_layer": "BBMP_Low_Lying_Areas"}, "geometry": {"type": "Point", "coordinates": [77.611414, 12.987921]}}, {"type": "Feature", "properties": {"name": "RAJIV GANDHI COLONY ,NEAR QUEENS ROAD", "kind": "BBMP low-lying area", "source_layer": "BBMP_Low_Lying_Areas"}, "geometry": {"type": "Point", "coordinates": [77.601206, 12.989232]}}, {"type": "Feature", "properties": {"name": "MURUGESHPALYA", "kind": "BBMP low-lying area", "source_layer": "BBMP_Low_Lying_Areas"}, "geometry": {"type": "Point", "coordinates": [77.655992, 12.956135]}}, {"type": "Feature", "properties": {"name": "SRINIVAGILU TANK BED LAYOUT", "kind": "BBMP low-lying area", "source_layer": "BBMP_Low_Lying_Areas"}, "geometry": {"type": "Point", "coordinates": [77.636726, 12.936238]}}, {"type": "Feature", "properties": {"name": "SHANTHI NAGARA", "kind": "BBMP low-lying area", "source_layer": "BBMP_Low_Lying_Areas"}, "geometry": {"type": "Point", "coordinates": [77.599551, 12.956486]}}, {"type": "Feature", "properties": {"name": "SAMPANGI RAMA NAGARA", "kind": "BBMP low-lying area", "source_layer": "BBMP_Low_Lying_Areas"}, "geometry": {"type": "Point", "coordinates": [77.592226, 12.972939]}}, {"type": "Feature", "properties": {"name": "SEETHAPPA LAYOUT NEAR RABINDRANATH TAGORE LAYOUT", "kind": "BBMP low-lying area", "source_layer": "BBMP_Low_Lying_Areas"}, "geometry": {"type": "Point", "coordinates": [77.603767, 13.033872]}}, {"type": "Feature", "properties": {"name": "BAMBOO BAZAR", "kind": "BBMP low-lying area", "source_layer": "BBMP_Low_Lying_Areas"}, "geometry": {"type": "Point", "coordinates": [77.603824, 12.992651]}}, {"type": "Feature", "properties": {"name": "munireddypalya anekappa block", "kind": "BBMP low-lying area", "source_layer": "BBMP_Low_Lying_Areas"}, "geometry": {"type": "Point", "coordinates": [77.594439, 13.013126]}}, {"type": "Feature", "properties": {"name": "SHANKAR NAGAR", "kind": "BBMP low-lying area", "source_layer": "BBMP_Low_Lying_Areas"}, "geometry": {"type": "Point", "coordinates": [77.571187, 13.031118]}}, {"type": "Feature", "properties": {"name": "Govindapura,Nesar Nagavara", "kind": "BBMP low-lying area", "source_layer": "BBMP_Low_Lying_Areas"}, "geometry": {"type": "Point", "coordinates": [77.615025, 13.033684]}}, {"type": "Feature", "properties": {"name": "ILLIYAS NAGAR KUMARSWAMY LAYOUT", "kind": "BBMP low-lying area", "source_layer": "BBMP_Low_Lying_Areas"}, "geometry": {"type": "Point", "coordinates": [77.569786, 12.90583]}}, {"type": "Feature", "properties": {"name": "MUNISUBBAREDDY LAYOUT HONGASANDRA", "kind": "BBMP low-lying area", "source_layer": "BBMP_Low_Lying_Areas"}, "geometry": {"type": "Point", "coordinates": [77.62847, 12.898934]}}, {"type": "Feature", "properties": {"name": "AMBEDKAR COLONY NEAR HONGASANDRA", "kind": "BBMP low-lying area", "source_layer": "BBMP_Low_Lying_Areas"}, "geometry": {"type": "Point", "coordinates": [77.628147, 12.892687]}}, {"type": "Feature", "properties": {"name": "MICO LAYOUT", "kind": "BBMP low-lying area", "source_layer": "BBMP_Low_Lying_Areas"}, "geometry": {"type": "Point", "coordinates": [77.626956, 12.887503]}}, {"type": "Feature", "properties": {"name": "ROYQAL MERIDIAN LAYOUT", "kind": "BBMP low-lying area", "source_layer": "BBMP_Low_Lying_Areas"}, "geometry": {"type": "Point", "coordinates": [77.624363, 12.887586]}}, {"type": "Feature", "properties": {"name": "VISHWA PRIYA NAGARA NEAR BEGUR MAIN RAOD", "kind": "BBMP low-lying area", "source_layer": "BBMP_Low_Lying_Areas"}, "geometry": {"type": "Point", "coordinates": [77.629051, 12.882051]}}, {"type": "Feature", "properties": {"name": "BEGUR KERE AREA", "kind": "BBMP low-lying area", "source_layer": "BBMP_Low_Lying_Areas"}, "geometry": {"type": "Point", "coordinates": [77.624941, 12.876405]}}, {"type": "Feature", "properties": {"name": "SUBASH NAGARA", "kind": "BBMP low-lying area", "source_layer": "BBMP_Low_Lying_Areas"}, "geometry": {"type": "Point", "coordinates": [77.639541, 12.869882]}}, {"type": "Feature", "properties": {"name": "GARVE BHAVI PALYA", "kind": "BBMP low-lying area", "source_layer": "BBMP_Low_Lying_Areas"}, "geometry": {"type": "Point", "coordinates": [77.63798, 12.894441]}}, {"type": "Feature", "properties": {"name": "PARAPPAN AGRAHARA", "kind": "BBMP low-lying area", "source_layer": "BBMP_Low_Lying_Areas"}, "geometry": {"type": "Point", "coordinates": [77.661159, 12.880294]}}, {"type": "Feature", "properties": {"name": "G K LAYOUT", "kind": "BBMP low-lying area", "source_layer": "BBMP_Low_Lying_Areas"}, "geometry": {"type": "Point", "coordinates": [77.660327, 12.873697]}}, {"type": "Feature", "properties": {"name": "KUDLU VILLAGE", "kind": "BBMP low-lying area", "source_layer": "BBMP_Low_Lying_Areas"}, "geometry": {"type": "Point", "coordinates": [77.657504, 12.889427]}}, {"type": "Feature", "properties": {"name": "B.T.R GARDEN LAYOUT", "kind": "BBMP low-lying area", "source_layer": "BBMP_Low_Lying_Areas"}, "geometry": {"type": "Point", "coordinates": [77.642364, 12.888512]}}, {"type": "Feature", "properties": {"name": "RAGHAVENDRA SLUM NEAR LAKSHMI LAYOUT", "kind": "BBMP low-lying area", "source_layer": "BBMP_Low_Lying_Areas"}, "geometry": {"type": "Point", "coordinates": [77.631708, 12.890726]}}, {"type": "Feature", "properties": {"name": "MUNIREDDY LAYOUT NEAR MANGAMMNAPALYA", "kind": "BBMP low-lying area", "source_layer": "BBMP_Low_Lying_Areas"}, "geometry": {"type": "Point", "coordinates": [77.637142, 12.905057]}}, {"type": "Feature", "properties": {"name": "VYSHYA BANK COLONY NEAR AREKERE", "kind": "BBMP low-lying area", "source_layer": "BBMP_Low_Lying_Areas"}, "geometry": {"type": "Point", "coordinates": [77.604285, 12.88335]}}, {"type": "Feature", "properties": {"name": "KRISHNA LAYOUT NEAR HULIMAVU KERE", "kind": "BBMP low-lying area", "source_layer": "BBMP_Low_Lying_Areas"}, "geometry": {"type": "Point", "coordinates": [77.605805, 12.877822]}}, {"type": "Feature", "properties": {"name": "BDA LAYOUT", "kind": "BBMP low-lying area", "source_layer": "BBMP_Low_Lying_Areas"}, "geometry": {"type": "Point", "coordinates": [77.591492, 12.857844]}}, {"type": "Feature", "properties": {"name": "PUTTENHALLI", "kind": "BBMP low-lying area", "source_layer": "BBMP_Low_Lying_Areas"}, "geometry": {"type": "Point", "coordinates": [77.58492, 12.901192]}}, {"type": "Feature", "properties": {"name": "ASHTA LAKSHMI LAYOUT ,PUTTENHALLI", "kind": "BBMP low-lying area", "source_layer": "BBMP_Low_Lying_Areas"}, "geometry": {"type": "Point", "coordinates": [77.586612, 12.901839]}}, {"type": "Feature", "properties": {"name": "GANAPATHPURA NEAR CHUNCHANGHATTA MAIN RAOD", "kind": "BBMP low-lying area", "source_layer": "BBMP_Low_Lying_Areas"}, "geometry": {"type": "Point", "coordinates": [77.57039, 12.886308]}}, {"type": "Feature", "properties": {"name": "HARI NAGAR NEAR KONANKUNTTE", "kind": "BBMP low-lying area", "source_layer": "BBMP_Low_Lying_Areas"}, "geometry": {"type": "Point", "coordinates": [77.575201, 12.883297]}}, {"type": "Feature", "properties": {"name": "VITTAL NAGAR NEAR ISRO LAYOUT,UTTARAHALLI", "kind": "BBMP low-lying area", "source_layer": "BBMP_Low_Lying_Areas"}, "geometry": {"type": "Point", "coordinates": [77.553865, 12.902625]}}, {"type": "Feature", "properties": {"name": "sanjaynagar", "kind": "BBMP low-lying area", "source_layer": "BBMP_Low_Lying_Areas"}, "geometry": {"type": "Point", "coordinates": [77.545009, 12.917834]}}, {"type": "Feature", "properties": {"name": "Yelechenahalli", "kind": "BBMP low-lying area", "source_layer": "BBMP_Low_Lying_Areas"}, "geometry": {"type": "Point", "coordinates": [77.571272, 12.905651]}}, {"type": "Feature", "properties": {"name": "Kanakanagar-Near kumaraswamylayout", "kind": "BBMP low-lying area", "source_layer": "BBMP_Low_Lying_Areas"}, "geometry": {"type": "Point", "coordinates": [77.571761, 12.90248]}}, {"type": "Feature", "properties": {"name": "Dorakere", "kind": "BBMP low-lying area", "source_layer": "BBMP_Low_Lying_Areas"}, "geometry": {"type": "Point", "coordinates": [77.545712, 12.903358]}}]}